[
   {
      "id":"75",
      "municipality":"paris",
      "postcode":"75"
   },
   {
      "id":"75001",
      "municipality":"paris 1er",
      "postcode":"75001"
   },
   {
      "id":"75002",
      "municipality":"paris 2e",
      "postcode":"75002"
   },
   {
      "id":"75003",
      "municipality":"paris 3e",
      "postcode":"75003"
   },
   {
      "id":"75004",
      "municipality":"paris 4e",
      "postcode":"75004"
   },
   {
      "id":"75005",
      "municipality":"paris 5e",
      "postcode":"75005"
   },
   {
      "id":"75006",
      "municipality":"paris 6e",
      "postcode":"75006"
   },
   {
      "id":"75007",
      "municipality":"paris 7e",
      "postcode":"75007"
   },
   {
      "id":"75008",
      "municipality":"paris 8e",
      "postcode":"75008"
   },
   {
      "id":"75009",
      "municipality":"paris 9e",
      "postcode":"75009"
   },
   {
      "id":"75010",
      "municipality":"paris 10e",
      "postcode":"75010"
   },
   {
      "id":"75011",
      "municipality":"paris 11e",
      "postcode":"75011"
   },
   {
      "id":"75012",
      "municipality":"paris 12e",
      "postcode":"75012"
   },
   {
      "id":"75013",
      "municipality":"paris 13e",
      "postcode":"75013"
   },
   {
      "id":"75014",
      "municipality":"paris 14e",
      "postcode":"75014"
   },
   {
      "id":"75015",
      "municipality":"paris 15e",
      "postcode":"75015"
   },
   {
      "id":"75016",
      "municipality":"paris-16e",
      "postcode":"75016"
   },
   {
      "id":"75017",
      "municipality":"paris 17e",
      "postcode":"75017"
   },
   {
      "id":"75018",
      "municipality":"paris 18e",
      "postcode":"75018"
   },
   {
      "id":"75019",
      "municipality":"paris 19e",
      "postcode":"75019"
   },
   {
      "id":"75020",
      "municipality":"paris 20e",
      "postcode":"75020"
   },
   {
      "id":"St-Germain-l'Auxerrois",
      "municipality":"St-Germain-l'Auxerrois",
      "postcode":"75001"
   },
      {
      "id":"Halles",
      "municipality":"Halles",
      "postcode":"75001"
   },      {
      "id":"Palais-Royal",
      "municipality":"Palais-Royal",
      "postcode":"75001"
   },      {
      "id":"Place-Vendôme",
      "municipality":"Place-Vendôme",
      "postcode":"75001"
   },
   {
      "id":"Gaillon",
      "municipality":"Gaillon",
      "postcode":"75002"
   },
   {
      "id":"Vivienne",
      "municipality":"Vivienne",
      "postcode":"75002"
   },
   {
      "id":"Mail",
      "municipality":"Mail",
      "postcode":"75002"
   },
   {
      "id":"Bonne-Nouvelle",
      "municipality":"Bonne-Nouvelle",
      "postcode":"75002"
   },
   {
      "id":"Arts-et-Metiers",
      "municipality":"Arts-et-Metiers",
      "postcode":"75003"
   },
   {
      "id":"Enfants-Rouges",
      "municipality":"Enfants-Rouges",
      "postcode":"75003"
   },
   {
      "id":"Archives",
      "municipality":"Archives",
      "postcode":"75003"
   },
   {
      "id":"Sainte-Avoie",
      "municipality":"Sainte-Avoie",
      "postcode":"75003"
   },
   {
      "id":"Saint-Merri",
      "municipality":"Saint-Merri",
      "postcode":"75004"
   },
   {
      "id":"Arsenal",
      "municipality":"Arsenal",
      "postcode":"75004"
   },
   {
      "id":"Notre-Dame",
      "municipality":"Notre-Dame",
      "postcode":"75004"
   },
   {
      "id":"Saint-Victor",
      "municipality":"Saint-Victor",
      "postcode":"75005"
   },
   {
      "id":"Jardin-des-Plantes",
      "municipality":"Jardin-des-Plantes",
      "postcode":"75005"
   },
   {
      "id":"Val-de-Grace",
      "municipality":"Val-de-Grace",
      "postcode":"75005"
   },
   {
      "id":"Sorbonne",
      "municipality":"Sorbonne",
      "postcode":"75005"
   },
   {
      "id":"Monnaie",
      "municipality":"Monnaie",
      "postcode":"75006"
   },
   {
      "id":"Odeon",
      "municipality":"Odeon",
      "postcode":"75006"
   },
   {
      "id":"Notre-Dame-des-Champs",
      "municipality":"Notre-Dame-des-Champs",
      "postcode":"75006"
   },
   {
      "id":"Saint-Germain-des-Prés",
      "municipality":"Saint-Germain-des-Prés",
      "postcode":"75006"
   },
    {
      "id":"Saint-Thomas-d'Aquin",
      "municipality":"Saint-Thomas-d'Aquin",
      "postcode":"75007"
   },
    {
      "id":"Invalides",
      "municipality":"Invalides",
      "postcode":"75007"
   },
    {
      "id":"Ecole-Militaire",
      "municipality":"Ecole-Militaire",
      "postcode":"75007"
   },
    {
      "id":"Gros-Caillou",
      "municipality":"Gros Caillou",
      "postcode":"75007"
   },
    {
      "id":"Champs-Elysées",
      "municipality":"Champs-Elysées",
      "postcode":"75008"
   },
    {
      "id":"Faubourg-du-Roule",
      "municipality":"Faubourg-du-Roule",
      "postcode":"75008"
   },
    {
      "id":"Madeleine",
      "municipality":"Madeleine",
      "postcode":"75008"
   },
    {
      "id":"Europe",
      "municipality":"Europe",
      "postcode":"75008"
   },
    {
      "id":"Saint-Georges",
      "municipality":"Saint-Georges",
      "postcode":"75009"
   },
    {
      "id":"Chaussée-d'Antin",
      "municipality":"Chaussée-d'Antin",
      "postcode":"75009"
   },
    {
      "id":"Faubourg-Montmartre",
      "municipality":"Faubourg-Montmartre",
      "postcode":"75009"
   },
    {
      "id":"Rochechouart",
      "municipality":"Rochechouart",
      "postcode":"75009"
   },
    {
      "id":"Saint-Vincent-de-Paul",
      "municipality":"Saint-Vincent-de-Paul",
      "postcode":"75010"
   },
    {
      "id":"Porte-Saint-Denis",
      "municipality":"Porte-Saint-Denis",
      "postcode":"75010"
   },
    {
      "id":"Porte-Saint-Martin",
      "municipality":"Porte-Saint-Martin",
      "postcode":"75010"
   },
    {
      "id":"Hôpital-Saint-Louis",
      "municipality":"Hôpital-Saint-Louis",
      "postcode":"75010"
   },
    {
      "id":"Folie-Méricourt",
      "municipality":"Folie-Méricourt",
      "postcode":"75011"
   },
    {
      "id":"Saint-Ambroise",
      "municipality":"Saint-Ambroise",
      "postcode":"75011"
   },
    {
      "id":"Roquette",
      "municipality":"Roquette",
      "postcode":"75011"
   },
    {
      "id":"Sainte-Marguerite",
      "municipality":"Sainte-Marguerite",
      "postcode":"75011"
   },
    {
      "id":"Bel-Air",
      "municipality":"Bel-Air",
      "postcode":"75012"
   },
    {
      "id":"Picpus",
      "municipality":"Picpus",
      "postcode":"75012"
   },
    {
      "id":"Bercy",
      "municipality":"Bercy",
      "postcode":"75012"
   },
    {
      "id":"Quinze-Vingts",
      "municipality":"Quinze-Vingts",
      "postcode":"75012"
   },
    {
      "id":"Salpétrière",
      "municipality":"Salpétrière",
      "postcode":"75013"
   },
    {
      "id":"Gare",
      "municipality":"Gare",
      "postcode":"75013"
   },
    {
      "id":"Maison-Blanche",
      "municipality":"Maison-Blanche",
      "postcode":"75013"
   },
    {
      "id":"Croulebarbe",
      "municipality":"Croulebarbe",
      "postcode":"75013"
   },
    {
      "id":"Montparnasse",
      "municipality":"Montparnasse",
      "postcode":"75014"
   },
    {
      "id":"Parc-de-Montsouris",
      "municipality":"Parc-de-Montsouris",
      "postcode":"75014"
   },
    {
      "id":"Petit-Montrouge",
      "municipality":"Petit-Montrouge",
      "postcode":"75014"
   },    
   {
      "id":"Plaisance",
      "municipality":"Plaisance",
      "postcode":"75014"
   },
   {
      "id":"Saint-Lambert",
      "municipality":"Saint-Lambert",
      "postcode":"75015"
   },
   {
      "id":"Necker",
      "municipality":"Necker",
      "postcode":"75015"
   },
   {
      "id":"Grenelle",
      "municipality":"Grenelle",
      "postcode":"75015"
   },
   {
      "id":"Javel 15Art",
      "municipality":"Javel 15Art",
      "postcode":"75015"
   },
   {
      "id":"Auteuil",
      "municipality":"Auteuil",
      "postcode":"75016"
   },
   {
      "id":"Muette",
      "municipality":"Muette",
      "postcode":"75016"
   },
   {
      "id":"Porte-Dauphine",
      "municipality":"Porte-Dauphine",
      "postcode":"75016"
   },
   {
      "id":"Chaillot",
      "municipality":"Chaillot",
      "postcode":"75016"
   },
   {
      "id":"Ternes",
      "municipality":"Ternes",
      "postcode":"75017"
   },
   {
      "id":"Plaine-de-Monceaux",
      "municipality":"Plaine-de-Monceaux",
      "postcode":"75017"
   },
   {
      "id":"Batignolles",
      "municipality":"Batignolles",
      "postcode":"75017"
   },
   {
      "id":"Epinettes",
      "municipality":"Epinettes",
      "postcode":"75017"
   },
   {
      "id":"Grandes-Carrières",
      "municipality":"Grandes-Carrières",
      "postcode":"75018"
   },
   {
      "id":"Clignancourt",
      "municipality":"Clignancourt",
      "postcode":"75018"
   },
   {
      "id":"Goutte-d'Or",
      "municipality":"Goutte-d'Or",
      "postcode":"75018"
   },
   {
      "id":"La-Chapelle",
      "municipality":"La-Chapelle",
      "postcode":"75018"
   },
   {
      "id":"Villette",
      "municipality":"Villette",
      "postcode":"75019"
   },
   {
      "id":"Pont-de-Flandre",
      "municipality":"Pont-de-Flandre",
      "postcode":"75019"
   },
   {
      "id":"Amérique",
      "municipality":"Amérique",
      "postcode":"75019"
   },
   {
      "id":"Combat",
      "municipality":"Combat",
      "postcode":"75019"
   },
   {
      "id":"Belleville",
      "municipality":"Belleville",
      "postcode":"75020"
   },
   {
      "id":"Saint-Fargeau",
      "municipality":"Saint-Fargeau",
      "postcode":"75020"
   },
   {
      "id":"Père-Lachaise",
      "municipality":"Père-Lachaise",
      "postcode":"75020"
   },
   {
      "id":"Charonne",
      "municipality":"Charonne",
      "postcode":"75020"
   }
][
   {
      "id":"75",
      "municipality":"paris",
      "postcode":"75"
   },
   {
      "id":"75001",
      "municipality":"paris 1er",
      "postcode":"75001"
   },
   {
      "id":"75002",
      "municipality":"paris 2e",
      "postcode":"75002"
   },
   {
      "id":"75003",
      "municipality":"paris 3e",
      "postcode":"75003"
   },
   {
      "id":"75004",
      "municipality":"paris 4e",
      "postcode":"75004"
   },
   {
      "id":"75005",
      "municipality":"paris 5e",
      "postcode":"75005"
   },
   {
      "id":"75006",
      "municipality":"paris 6e",
      "postcode":"75006"
   },
   {
      "id":"75007",
      "municipality":"paris 7e",
      "postcode":"75007"
   },
   {
      "id":"75008",
      "municipality":"paris 8e",
      "postcode":"75008"
   },
   {
      "id":"75009",
      "municipality":"paris 9e",
      "postcode":"75009"
   },
   {
      "id":"75010",
      "municipality":"paris 10e",
      "postcode":"75010"
   },
   {
      "id":"75011",
      "municipality":"paris 11e",
      "postcode":"75011"
   },
   {
      "id":"75012",
      "municipality":"paris 12e",
      "postcode":"75012"
   },
   {
      "id":"75013",
      "municipality":"paris 13e",
      "postcode":"75013"
   },
   {
      "id":"75014",
      "municipality":"paris 14e",
      "postcode":"75014"
   },
   {
      "id":"75015",
      "municipality":"paris 15e",
      "postcode":"75015"
   },
   {
      "id":"75016",
      "municipality":"paris-16e",
      "postcode":"75016"
   },
   {
      "id":"75017",
      "municipality":"paris 17e",
      "postcode":"75017"
   },
   {
      "id":"75018",
      "municipality":"paris 18e",
      "postcode":"75018"
   },
   {
      "id":"75019",
      "municipality":"paris 19e",
      "postcode":"75019"
   },
   {
      "id":"75020",
      "municipality":"paris 20e",
      "postcode":"75020"
   },
   {
      "id":"St-Germain-l'Auxerrois",
      "municipality":"St-Germain-l'Auxerrois",
      "postcode":"75001"
   },
   {
      "id":"Halles",
      "municipality":"Halles",
      "postcode":"75001"
   },
   {
      "id":"Palais-Royal",
      "municipality":"Palais-Royal",
      "postcode":"75001"
   },
   {
      "id":"Place-Vendôme",
      "municipality":"Place-Vendôme",
      "postcode":"75001"
   },
   {
      "id":"Gaillon",
      "municipality":"Gaillon",
      "postcode":"75002"
   },
   {
      "id":"Vivienne",
      "municipality":"Vivienne",
      "postcode":"75002"
   },
   {
      "id":"Mail",
      "municipality":"Mail",
      "postcode":"75002"
   },
   {
      "id":"Bonne-Nouvelle",
      "municipality":"Bonne-Nouvelle",
      "postcode":"75002"
   },
   {
      "id":"Arts-et-Metiers",
      "municipality":"Arts-et-Metiers",
      "postcode":"75003"
   },
   {
      "id":"Enfants-Rouges",
      "municipality":"Enfants-Rouges",
      "postcode":"75003"
   },
   {
      "id":"Archives",
      "municipality":"Archives",
      "postcode":"75003"
   },
   {
      "id":"Sainte-Avoie",
      "municipality":"Sainte-Avoie",
      "postcode":"75003"
   },
   {
      "id":"Saint-Merri",
      "municipality":"Saint-Merri",
      "postcode":"75004"
   },
   {
      "id":"Arsenal",
      "municipality":"Arsenal",
      "postcode":"75004"
   },
   {
      "id":"Notre-Dame",
      "municipality":"Notre-Dame",
      "postcode":"75004"
   },
   {
      "id":"Saint-Victor",
      "municipality":"Saint-Victor",
      "postcode":"75005"
   },
   {
      "id":"Jardin-des-Plantes",
      "municipality":"Jardin-des-Plantes",
      "postcode":"75005"
   },
   {
      "id":"Val-de-Grace",
      "municipality":"Val-de-Grace",
      "postcode":"75005"
   },
   {
      "id":"Sorbonne",
      "municipality":"Sorbonne",
      "postcode":"75005"
   },
   {
      "id":"Monnaie",
      "municipality":"Monnaie",
      "postcode":"75006"
   },
   {
      "id":"Odeon",
      "municipality":"Odeon",
      "postcode":"75006"
   },
   {
      "id":"Notre-Dame-des-Champs",
      "municipality":"Notre-Dame-des-Champs",
      "postcode":"75006"
   },
   {
      "id":"Saint-Germain-des-Prés",
      "municipality":"Saint-Germain-des-Prés",
      "postcode":"75006"
   },
   {
      "id":"Saint-Thomas-d'Aquin",
      "municipality":"Saint-Thomas-d'Aquin",
      "postcode":"75007"
   },
   {
      "id":"Invalides",
      "municipality":"Invalides",
      "postcode":"75007"
   },
   {
      "id":"Ecole-Militaire",
      "municipality":"Ecole-Militaire",
      "postcode":"75007"
   },
   {
      "id":"Gros-Caillou",
      "municipality":"Gros Caillou",
      "postcode":"75007"
   },
   {
      "id":"Champs-Elysées",
      "municipality":"Champs-Elysées",
      "postcode":"75008"
   },
   {
      "id":"Faubourg-du-Roule",
      "municipality":"Faubourg-du-Roule",
      "postcode":"75008"
   },
   {
      "id":"Madeleine",
      "municipality":"Madeleine",
      "postcode":"75008"
   },
   {
      "id":"Europe",
      "municipality":"Europe",
      "postcode":"75008"
   },
   {
      "id":"Saint-Georges",
      "municipality":"Saint-Georges",
      "postcode":"75009"
   },
   {
      "id":"Chaussée-d'Antin",
      "municipality":"Chaussée-d'Antin",
      "postcode":"75009"
   },
   {
      "id":"Faubourg-Montmartre",
      "municipality":"Faubourg-Montmartre",
      "postcode":"75009"
   },
   {
      "id":"Rochechouart",
      "municipality":"Rochechouart",
      "postcode":"75009"
   },
   {
      "id":"Saint-Vincent-de-Paul",
      "municipality":"Saint-Vincent-de-Paul",
      "postcode":"75010"
   },
   {
      "id":"Porte-Saint-Denis",
      "municipality":"Porte-Saint-Denis",
      "postcode":"75010"
   },
   {
      "id":"Porte-Saint-Martin",
      "municipality":"Porte-Saint-Martin",
      "postcode":"75010"
   },
   {
      "id":"Hôpital-Saint-Louis",
      "municipality":"Hôpital-Saint-Louis",
      "postcode":"75010"
   },
   {
      "id":"Folie-Méricourt",
      "municipality":"Folie-Méricourt",
      "postcode":"75011"
   },
   {
      "id":"Saint-Ambroise",
      "municipality":"Saint-Ambroise",
      "postcode":"75011"
   },
   {
      "id":"Roquette",
      "municipality":"Roquette",
      "postcode":"75011"
   },
   {
      "id":"Sainte-Marguerite",
      "municipality":"Sainte-Marguerite",
      "postcode":"75011"
   },
   {
      "id":"Bel-Air",
      "municipality":"Bel-Air",
      "postcode":"75012"
   },
   {
      "id":"Picpus",
      "municipality":"Picpus",
      "postcode":"75012"
   },
   {
      "id":"Bercy",
      "municipality":"Bercy",
      "postcode":"75012"
   },
   {
      "id":"Quinze-Vingts",
      "municipality":"Quinze-Vingts",
      "postcode":"75012"
   },
   {
      "id":"Salpétrière",
      "municipality":"Salpétrière",
      "postcode":"75013"
   },
   {
      "id":"Gare",
      "municipality":"Gare",
      "postcode":"75013"
   },
   {
      "id":"Maison-Blanche",
      "municipality":"Maison-Blanche",
      "postcode":"75013"
   },
   {
      "id":"Croulebarbe",
      "municipality":"Croulebarbe",
      "postcode":"75013"
   },
   {
      "id":"Montparnasse",
      "municipality":"Montparnasse",
      "postcode":"75014"
   },
   {
      "id":"Parc-de-Montsouris",
      "municipality":"Parc-de-Montsouris",
      "postcode":"75014"
   },
   {
      "id":"Petit-Montrouge",
      "municipality":"Petit-Montrouge",
      "postcode":"75014"
   },
   {
      "id":"Plaisance",
      "municipality":"Plaisance",
      "postcode":"75014"
   },
   {
      "id":"Saint-Lambert",
      "municipality":"Saint-Lambert",
      "postcode":"75015"
   },
   {
      "id":"Necker",
      "municipality":"Necker",
      "postcode":"75015"
   },
   {
      "id":"Grenelle",
      "municipality":"Grenelle",
      "postcode":"75015"
   },
   {
      "id":"Javel 15Art",
      "municipality":"Javel 15Art",
      "postcode":"75015"
   },
   {
      "id":"Auteuil",
      "municipality":"Auteuil",
      "postcode":"75016"
   },
   {
      "id":"Muette",
      "municipality":"Muette",
      "postcode":"75016"
   },
   {
      "id":"Porte-Dauphine",
      "municipality":"Porte-Dauphine",
      "postcode":"75016"
   },
   {
      "id":"Chaillot",
      "municipality":"Chaillot",
      "postcode":"75016"
   },
   {
      "id":"Ternes",
      "municipality":"Ternes",
      "postcode":"75017"
   },
   {
      "id":"Plaine-de-Monceaux",
      "municipality":"Plaine-de-Monceaux",
      "postcode":"75017"
   },
   {
      "id":"Batignolles",
      "municipality":"Batignolles",
      "postcode":"75017"
   },
   {
      "id":"Epinettes",
      "municipality":"Epinettes",
      "postcode":"75017"
   },
   {
      "id":"Grandes-Carrières",
      "municipality":"Grandes-Carrières",
      "postcode":"75018"
   },
   {
      "id":"Clignancourt",
      "municipality":"Clignancourt",
      "postcode":"75018"
   },
   {
      "id":"Goutte-d'Or",
      "municipality":"Goutte-d'Or",
      "postcode":"75018"
   },
   {
      "id":"La-Chapelle",
      "municipality":"La-Chapelle",
      "postcode":"75018"
   },
   {
      "id":"Villette",
      "municipality":"Villette",
      "postcode":"75019"
   },
   {
      "id":"Pont-de-Flandre",
      "municipality":"Pont-de-Flandre",
      "postcode":"75019"
   },
   {
      "id":"Amérique",
      "municipality":"Amérique",
      "postcode":"75019"
   },
   {
      "id":"Combat",
      "municipality":"Combat",
      "postcode":"75019"
   },
   {
      "id":"Belleville",
      "municipality":"Belleville",
      "postcode":"75020"
   },
   {
      "id":"Saint-Fargeau",
      "municipality":"Saint-Fargeau",
      "postcode":"75020"
   },
   {
      "id":"Père-Lachaise",
      "municipality":"Père-Lachaise",
      "postcode":"75020"
   },
   {
      "id":"Charonne",
      "municipality":"Charonne",
      "postcode":"75020"
   }
]