[{"municipality": "PARIS", "postcode": "75", "id": 0}, {"municipality": "ESSONNE", "postcode": "91", "id": 1}, {"municipality": "HAUTS-DE-SEINE", "postcode": "92", "id": 2}, {"municipality": "SEINE-ET-MARNE", "postcode": "77", "id": 3}, {"postcode": "93 SEINE-SAINT-DENIS", "id": 4}, {"municipality": "VAL-D OISE", "postcode": "95", "id": 5}, {"municipality": "VAL-DE-MARNE", "postcode": "94", "id": 6}, {"municipality": "YVELINES", "postcode": "78", "id": 7}, {"municipality": "COULOMMES", "postcode": "77580", "id": 8}, {"municipality": "CHAMPIGNY-SUR-MARNE", "postcode": "94500", "id": 9}, {"municipality": "MARINES", "postcode": "95640", "id": 10}, {"municipality": "BOUTIGNY-SUR-ESSONNE", "postcode": "91820", "id": 11}, {"municipality": "SONCHAMP", "postcode": "78120", "id": 12}, {"municipality": "SAINT-SOUPPLETS", "postcode": "77165", "id": 13}, {"municipality": "GUERNES", "postcode": "78520", "id": 14}, {"municipality": "COULOMBS-EN-VALOIS", "postcode": "77840", "id": 15}, {"municipality": "CHATRES", "postcode": "77610", "id": 16}, {"municipality": "VINCENNES", "postcode": "94300", "id": 17}, {"municipality": "REMAUVILLE", "postcode": "77710", "id": 18}, {"municipality": "LES ULIS", "postcode": "91940", "id": 19}, {"municipality": "LES PAVILLONS-SOUS-BOIS", "postcode": "93320", "id": 20}, {"municipality": "VILLIERS-ADAM", "postcode": "95840", "id": 21}, {"municipality": "TORCY", "postcode": "77200", "id": 22}, {"municipality": "MOUSSEAUX-LES-BRAY", "postcode": "77480", "id": 23}, {"municipality": "ARRANCOURT", "postcode": "91690", "id": 24}, {"municipality": "PRUNAY-SUR-ESSONNE", "postcode": "91720", "id": 25}, {"municipality": "JUILLY", "postcode": "77230", "id": 26}, {"municipality": "CLAMART", "postcode": "92140", "id": 27}, {"municipality": "CORMEILLES-EN-PARISIS", "postcode": "95240", "id": 28}, {"municipality": "MAGNY-EN-VEXIN", "postcode": "95420", "id": 29}, {"municipality": "SOINDRES", "postcode": "78200", "id": 30}, {"municipality": "FAVIERES", "postcode": "77220", "id": 31}, {"municipality": "BREANCON", "postcode": "95640", "id": 32}, {"municipality": "CIVRY-LA-FORET", "postcode": "78910", "id": 33}, {"municipality": "TANCROU", "postcode": "77440", "id": 34}, {"municipality": "VERNOUILLET", "postcode": "78540", "id": 35}, {"municipality": "ESTOUCHES", "postcode": "91660", "id": 36}, {"municipality": "CARRIERES-SUR-SEINE", "postcode": "78420", "id": 37}, {"municipality": "COUILLY-PONT-AUX-DAMES", "postcode": "77860", "id": 38}, {"municipality": "LE THILLAY", "postcode": "95500", "id": 39}, {"municipality": "POLIGNY", "postcode": "77167", "id": 40}, {"municipality": "LES ALLUETS-LE-ROI", "postcode": "78580", "id": 41}, {"municipality": "VAYRES-SUR-ESSONNE", "postcode": "91820", "id": 42}, {"municipality": "LE KREMLIN-BICETRE", "postcode": "94270", "id": 43}, {"municipality": "VILLIERS-EN-BIERE", "postcode": "77190", "id": 44}, {"municipality": "LE MESNIL-AUBRY", "postcode": "95720", "id": 45}, {"municipality": "CHANTELOUP-EN-BRIE", "postcode": "77600", "id": 46}, {"municipality": "LISSY", "postcode": "77550", "id": 47}, {"municipality": "WISSOUS", "postcode": "91320", "id": 48}, {"municipality": "LUISETAINES", "postcode": "77520", "id": 49}, {"municipality": "GOUPILLIERES", "postcode": "78770", "id": 50}, {"municipality": "BLANDY", "postcode": "91150", "id": 51}, {"municipality": "ETIOLLES", "postcode": "91450", "id": 52}, {"municipality": "BEAUTHEIL", "postcode": "77120", "id": 53}, {"municipality": "MAUPERTHUIS", "postcode": "77120", "id": 54}, {"municipality": "LONGUEVILLE", "postcode": "77650", "id": 55}, {"municipality": "AUBERGENVILLE", "postcode": "78410", "id": 56}, {"municipality": "HONDEVILLIERS", "postcode": "77510", "id": 57}, {"municipality": "FROUVILLE", "postcode": "95690", "id": 58}, {"municipality": "MONTROUGE", "postcode": "92120", "id": 59}, {"municipality": "MENERVILLE", "postcode": "78200", "id": 60}, {"municipality": "NOYEN-SUR-SEINE", "postcode": "77114", "id": 61}, {"municipality": "FRESNES", "postcode": "94260", "id": 62}, {"municipality": "FONTENAY-LE-VICOMTE", "postcode": "91540", "id": 63}, {"municipality": "CHAMBOURCY", "postcode": "78240", "id": 64}, {"municipality": "VIEILLE-EGLISE-EN-YVELINES", "postcode": "78125", "id": 65}, {"municipality": "PRUNAY-LE-TEMPLE", "postcode": "78910", "id": 66}, {"municipality": "ARRONVILLE", "postcode": "95810", "id": 67}, {"municipality": "SAINT-ANGE-LE-VIEL", "postcode": "77710", "id": 68}, {"municipality": "CHAMIGNY", "postcode": "77260", "id": 69}, {"municipality": "THIEUX", "postcode": "77230", "id": 70}, {"municipality": "LE PLESSIS-TREVISE", "postcode": "94420", "id": 71}, {"municipality": "SARTROUVILLE", "postcode": "78500", "id": 72}, {"municipality": "PUISELET-LE-MARAIS", "postcode": "91150", "id": 73}, {"municipality": "ELANCOURT", "postcode": "78990", "id": 74}, {"municipality": "PANTIN", "postcode": "93500", "id": 75}, {"municipality": "MEILLERAY", "postcode": "77320", "id": 76}, {"municipality": "DAMMARTIN-EN-SERVE", "postcode": "78111", "id": 77}, {"municipality": "DANNEMOIS", "postcode": "91490", "id": 78}, {"municipality": "OLLAINVILLE", "postcode": "91340", "id": 79}, {"municipality": "MONTIGNY-LES-CORMEILLES", "postcode": "95370", "id": 80}, {"municipality": "MEIGNEUX", "postcode": "77520", "id": 81}, {"municipality": "CHAMBRY", "postcode": "77910", "id": 82}, {"municipality": "RENNEMOULIN", "postcode": "78590", "id": 83}, {"municipality": "CHAMPAGNE-SUR-SEINE", "postcode": "77430", "id": 84}, {"municipality": "TREMBLAY-EN-FRANCE", "postcode": "93290", "id": 85}, {"municipality": "GOUSSONVILLE", "postcode": "78930", "id": 86}, {"municipality": "PIERREFITTE-SUR-SEINE", "postcode": "93380", "id": 87}, {"municipality": "PERDREAUVILLE", "postcode": "78200", "id": 88}, {"municipality": "BRIE-COMTE-ROBERT", "postcode": "77170", "id": 89}, {"municipality": "MAISONCELLES-EN-BRIE", "postcode": "77580", "id": 90}, {"municipality": "AIGREMONT", "postcode": "78240", "id": 91}, {"municipality": "BRAY-SUR-SEINE", "postcode": "77480", "id": 92}, {"municipality": "COULOMMIERS", "postcode": "77120", "id": 93}, {"municipality": "MONTENILS", "postcode": "77320", "id": 94}, {"municipality": "GONESSE", "postcode": "95500", "id": 95}, {"municipality": "GARGENVILLE", "postcode": "78440", "id": 96}, {"municipality": "BRUYERES-LE-CHATEL", "postcode": "91680", "id": 97}, {"municipality": "LE TERTRE-SAINT-DENIS", "postcode": "78980", "id": 98}, {"municipality": "CLAYE-SOUILLY", "postcode": "77410", "id": 99}, {"municipality": "ETREPILLY", "postcode": "77139", "id": 100}, {"municipality": "GAILLON-SUR-MONTCIENT", "postcode": "78250", "id": 101}, {"municipality": "ORLY", "postcode": "94310", "id": 102}, {"municipality": "JOUY-LE-CHATEL", "postcode": "77970", "id": 103}, {"municipality": "FOURQUEUX", "postcode": "78112", "id": 104}, {"municipality": "PERTHES", "postcode": "77930", "id": 105}, {"municipality": "GRANDPUITS-BAILLY-CARROIS", "postcode": "77720", "id": 106}, {"municipality": "LISSES", "postcode": "91090", "id": 107}, {"municipality": "DEUIL-LA-BARRE", "postcode": "95170", "id": 108}, {"municipality": "JOUY-MAUVOISIN", "postcode": "78200", "id": 109}, {"municipality": "VARENNES-JARCY", "postcode": "91480", "id": 110}, {"municipality": "EZANVILLE", "postcode": "95460", "id": 111}, {"municipality": "CHEVANNES", "postcode": "91750", "id": 112}, {"municipality": "BOISSY-LE-CHATEL", "postcode": "77169", "id": 113}, {"municipality": "MARCILLY", "postcode": "77139", "id": 114}, {"municipality": "SAINT-GERMAIN-SOUS-DOUE", "postcode": "77169", "id": 115}, {"municipality": "CACHAN", "postcode": "94230", "id": 116}, {"municipality": "VILLEROY", "postcode": "77410", "id": 117}, {"municipality": "GERMIGNY-SOUS-COULOMBS", "postcode": "77840", "id": 118}, {"municipality": "ROISSY-EN-BRIE", "postcode": "77680", "id": 119}, {"municipality": "VILLUIS", "postcode": "77480", "id": 120}, {"municipality": "CLERY-EN-VEXIN", "postcode": "95420", "id": 121}, {"municipality": "CUCHARMOY", "postcode": "77160", "id": 122}, {"municipality": "SAINT-GERMAIN-LAVAL", "postcode": "77130", "id": 123}, {"municipality": "COURQUETAINE", "postcode": "77390", "id": 124}, {"municipality": "CHARMONT", "postcode": "95420", "id": 125}, {"municipality": "FONTAINEBLEAU", "postcode": "77300", "id": 126}, {"municipality": "MAY-EN-MULTIEN", "postcode": "77145", "id": 127}, {"municipality": "BALLANCOURT-SUR-ESSONNE", "postcode": "91610", "id": 128}, {"municipality": "BETHEMONT-LA-FORET", "postcode": "95840", "id": 129}, {"municipality": "SURVILLIERS", "postcode": "95470", "id": 130}, {"municipality": "SEUGY", "postcode": "95270", "id": 131}, {"municipality": "ECQUEVILLY", "postcode": "78920", "id": 132}, {"municipality": "COURBEVOIE", "postcode": "92400", "id": 133}, {"municipality": "LES ORMES-SUR-VOULZIE", "postcode": "77134", "id": 134}, {"municipality": "SOURDUN", "postcode": "77171", "id": 135}, {"municipality": "SIVRY-COURTRY", "postcode": "77115", "id": 136}, {"municipality": "VETHEUIL", "postcode": "95510", "id": 137}, {"municipality": "SAINT-JEAN-LES-DEUX-JUMEAUX", "postcode": "77660", "id": 138}, {"municipality": "FOSSES", "postcode": "95470", "id": 139}, {"municipality": "VILLIERS-LE-BACLE", "postcode": "91190", "id": 140}, {"municipality": "LOUVECIENNES", "postcode": "78430", "id": 141}, {"municipality": "BOULEURS", "postcode": "77580", "id": 142}, {"municipality": "AVRAINVILLE", "postcode": "91630", "id": 143}, {"municipality": "ARNOUVILLE-LES-MANTES", "postcode": "78790", "id": 144}, {"municipality": "GIRONVILLE-SUR-ESSONNE", "postcode": "91720", "id": 145}, {"municipality": "MEULAN-EN-YVELINES", "postcode": "78250", "id": 146}, {"municipality": "POINCY", "postcode": "77470", "id": 147}, {"municipality": "SAINT-DENIS-LES-REBAIS", "postcode": "77510", "id": 148}, {"municipality": "LE BELLAY-EN-VEXIN", "postcode": "95750", "id": 149}, {"municipality": "MAGNANVILLE", "postcode": "78200", "id": 150}, {"municipality": "GUERCHEVILLE", "postcode": "77760", "id": 151}, {"municipality": "PECQUEUSE", "postcode": "91470", "id": 152}, {"municipality": "LES LILAS", "postcode": "93260", "id": 153}, {"municipality": "PONTOISE", "postcode": "95000", "id": 154}, {"municipality": "PONTOISE", "postcode": "95300", "id": 155}, {"municipality": "VERRIERES-LE-BUISSON", "postcode": "91370", "id": 156}, {"municipality": "SAINT-GERMAIN-LES-ARPAJON", "postcode": "91180", "id": 157}, {"municipality": "ARMENTIERES-EN-BRIE", "postcode": "77440", "id": 158}, {"municipality": "MONDREVILLE", "postcode": "78980", "id": 159}, {"municipality": "VILLE-D'AVRAY", "postcode": "92410", "id": 160}, {"municipality": "COURCELLES-EN-BASSEE", "postcode": "77126", "id": 161}, {"municipality": "ARCUEIL", "postcode": "94110", "id": 162}, {"municipality": "ANDELU", "postcode": "78770", "id": 163}, {"municipality": "MONTAINVILLE", "postcode": "78124", "id": 164}, {"municipality": "YEBLES", "postcode": "77390", "id": 165}, {"municipality": "GUILLERVAL", "postcode": "91690", "id": 166}, {"municipality": "SAINT-ESCOBILLE", "postcode": "91410", "id": 167}, {"municipality": "BOISSISE-LE-ROI", "postcode": "77310", "id": 168}, {"municipality": "BOULANCOURT", "postcode": "77760", "id": 169}, {"municipality": "PUISEUX-PONTOISE", "postcode": "95650", "id": 170}, {"municipality": "BREUIL-BOIS-ROBERT", "postcode": "78930", "id": 171}, {"municipality": "VALENTON", "postcode": "94460", "id": 172}, {"municipality": "BESSANCOURT", "postcode": "95550", "id": 173}, {"municipality": "MEZY-SUR-SEINE", "postcode": "78250", "id": 174}, {"municipality": "LE PLESSIS-AUX-BOIS", "postcode": "77165", "id": 175}, {"municipality": "MAUCHAMPS", "postcode": "91730", "id": 176}, {"municipality": "SAINTE-MESME", "postcode": "78730", "id": 177}, {"municipality": "ORGEVAL", "postcode": "78630", "id": 178}, {"municipality": "CONDE-SAINTE-LIBIAIRE", "postcode": "77450", "id": 179}, {"municipality": "BONNIERES-SUR-SEINE", "postcode": "78270", "id": 180}, {"municipality": "BOIS-LE-ROI", "postcode": "77590", "id": 181}, {"municipality": "MAFFLIERS", "postcode": "95560", "id": 182}, {"municipality": "VILLIERS-SUR-MARNE", "postcode": "94350", "id": 183}, {"municipality": "ORPHIN", "postcode": "78125", "id": 184}, {"municipality": "AMBLEVILLE", "postcode": "95710", "id": 185}, {"municipality": "MAURECOURT", "postcode": "78780", "id": 186}, {"municipality": "VAUREAL", "postcode": "95490", "id": 187}, {"municipality": "SAVINS", "postcode": "77650", "id": 188}, {"municipality": "FROMONT", "postcode": "77760", "id": 189}, {"municipality": "MASSY", "postcode": "91300", "id": 190}, {"municipality": "ARVILLE", "postcode": "77890", "id": 191}, {"municipality": "NEAUPHLE-LE-CHATEAU", "postcode": "78640", "id": 192}, {"municipality": "FONTENAILLES", "postcode": "77370", "id": 193}, {"municipality": "BOINVILLIERS", "postcode": "78200", "id": 194}, {"municipality": "THEUVILLE", "postcode": "95810", "id": 195}, {"municipality": "LA FERTE-GAUCHER", "postcode": "77320", "id": 196}, {"municipality": "COMMENY", "postcode": "95450", "id": 197}, {"municipality": "IVRY-SUR-SEINE", "postcode": "94200", "id": 198}, {"municipality": "SAINT-CYR-SUR-MORIN", "postcode": "77750", "id": 199}, {"municipality": "OCQUERRE", "postcode": "77440", "id": 200}, {"municipality": "COURSON-MONTELOUP", "postcode": "91680", "id": 201}, {"municipality": "FLACOURT", "postcode": "78200", "id": 202}, {"municipality": "STAINS", "postcode": "93240", "id": 203}, {"municipality": "PARIS-8E-ARRONDISSEMENT", "postcode": "75008", "id": 204}, {"municipality": "ARBONNE-LA-FORET", "postcode": "77630", "id": 205}, {"municipality": "LUMIGNY-NESLES-ORMEAUX", "postcode": "77540", "id": 206}, {"municipality": "GRESSY", "postcode": "77410", "id": 207}, {"municipality": "BAZOCHES-SUR-GUYONNE", "postcode": "78490", "id": 208}, {"municipality": "BOUTIGNY", "postcode": "77470", "id": 209}, {"municipality": "CHALOU-MOULINEUX", "postcode": "91740", "id": 210}, {"municipality": "GUYANCOURT", "postcode": "78280", "id": 211}, {"municipality": "MONTCEAUX-LES-MEAUX", "postcode": "77470", "id": 212}, {"municipality": "CROISSY-BEAUBOURG", "postcode": "77183", "id": 213}, {"municipality": "COUBERT", "postcode": "77170", "id": 214}, {"municipality": "VILLETANEUSE", "postcode": "93430", "id": 215}, {"municipality": "CHEVILLY-LARUE", "postcode": "94550", "id": 216}, {"municipality": "CHANTELOUP-LES-VIGNES", "postcode": "78570", "id": 217}, {"municipality": "BOINVILLE-EN-MANTOIS", "postcode": "78930", "id": 218}, {"municipality": "LE VAL-SAINT-GERMAIN", "postcode": "91530", "id": 219}, {"municipality": "JAIGNES", "postcode": "77440", "id": 220}, {"municipality": "GRETZ-ARMAINVILLIERS", "postcode": "77220", "id": 221}, {"municipality": "COURGENT", "postcode": "78790", "id": 222}, {"municipality": "VOULANGIS", "postcode": "77580", "id": 223}, {"municipality": "VILLIERS-SAINT-FREDERIC", "postcode": "78640", "id": 224}, {"municipality": "BOISSY-L'AILLERIE", "postcode": "95650", "id": 225}, {"municipality": "VIMPELLES", "postcode": "77520", "id": 226}, {"municipality": "SAINT-MICHEL-SUR-ORGE", "postcode": "91240", "id": 227}, {"municipality": "BAGNEAUX-SUR-LOING", "postcode": "77167", "id": 228}, {"municipality": "MISY-SUR-YONNE", "postcode": "77130", "id": 229}, {"municipality": "SAINT-NOM-LA-BRETECHE", "postcode": "78860", "id": 230}, {"municipality": "PRESLES-EN-BRIE", "postcode": "77220", "id": 231}, {"municipality": "GARGES-LES-GONESSE", "postcode": "95140", "id": 232}, {"municipality": "VILLIERS-LE-MAHIEU", "postcode": "78770", "id": 233}, {"municipality": "CHAMPS-SUR-MARNE", "postcode": "77420", "id": 234}, {"municipality": "ERAGNY", "postcode": "95610", "id": 235}, {"municipality": "FLINS-SUR-SEINE", "postcode": "78410", "id": 236}, {"municipality": "HAUTEFEUILLE", "postcode": "77515", "id": 237}, {"municipality": "LE PECQ", "postcode": "78230", "id": 238}, {"municipality": "VILLECRESNES", "postcode": "94440", "id": 239}, {"municipality": "BOISSY-MAUVOISIN", "postcode": "78200", "id": 240}, {"municipality": "RICHEBOURG", "postcode": "78550", "id": 241}, {"municipality": "LESCHES", "postcode": "77450", "id": 242}, {"municipality": "CHAILLY-EN-BIERE", "postcode": "77930", "id": 243}, {"municipality": "SENLISSE", "postcode": "78720", "id": 244}, {"municipality": "PARIS-17E-ARRONDISSEMENT", "postcode": "75017", "id": 245}, {"municipality": "CROUY-SUR-OURCQ", "postcode": "77840", "id": 246}, {"municipality": "VITRY-SUR-SEINE", "postcode": "94400", "id": 247}, {"municipality": "NESLES-LA-VALLEE", "postcode": "95690", "id": 248}, {"municipality": "IVERNY", "postcode": "77165", "id": 249}, {"municipality": "ATHIS-MONS", "postcode": "91200", "id": 250}, {"municipality": "SAINT-MAMMES", "postcode": "77670", "id": 251}, {"municipality": "SAINT-GERMAIN-LES-CORBEIL", "postcode": "91250", "id": 252}, {"municipality": "REAU", "postcode": "77550", "id": 253}, {"municipality": "BREAU", "postcode": "77720", "id": 254}, {"municipality": "FEROLLES-ATTILLY", "postcode": "77150", "id": 255}, {"municipality": "RAMPILLON", "postcode": "77370", "id": 256}, {"municipality": "LA HOUSSAYE-EN-BRIE", "postcode": "77610", "id": 257}, {"municipality": "EGLY", "postcode": "91520", "id": 258}, {"municipality": "NANTEAU-SUR-LUNAIN", "postcode": "77710", "id": 259}, {"municipality": "BOINVILLE-LE-GAILLARD", "postcode": "78660", "id": 260}, {"municipality": "LES BREVIAIRES", "postcode": "78610", "id": 261}, {"municipality": "VINCY-MANOEUVRE", "postcode": "77139", "id": 262}, {"municipality": "GIRONVILLE", "postcode": "77890", "id": 263}, {"municipality": "FRENEUSE", "postcode": "78840", "id": 264}, {"municipality": "COUBRON", "postcode": "93470", "id": 265}, {"municipality": "SAINT-THIBAULT-DES-VIGNES", "postcode": "77400", "id": 266}, {"municipality": "VILLERS-EN-ARTHIES", "postcode": "95510", "id": 267}, {"municipality": "LABBEVILLE", "postcode": "95690", "id": 268}, {"municipality": "ORGERUS", "postcode": "78910", "id": 269}, {"municipality": "GAMBAIS", "postcode": "78950", "id": 270}, {"municipality": "MONTOLIVET", "postcode": "77320", "id": 271}, {"municipality": "CLICHY-SOUS-BOIS", "postcode": "93390", "id": 272}, {"municipality": "MAREIL-EN-FRANCE", "postcode": "95850", "id": 273}, {"municipality": "LE COUDRAY-MONTCEAUX", "postcode": "91830", "id": 274}, {"municipality": "GUERVILLE", "postcode": "78930", "id": 275}, {"municipality": "ORLY-SUR-MORIN", "postcode": "77750", "id": 276}, {"municipality": "LES ESSARTS-LE-ROI", "postcode": "78690", "id": 277}, {"municipality": "GAMBAISEUIL", "postcode": "78490", "id": 278}, {"municipality": "SAVIGNY-LE-TEMPLE", "postcode": "77176", "id": 279}, {"municipality": "ROLLEBOISE", "postcode": "78270", "id": 280}, {"municipality": "BURES-SUR-YVETTE", "postcode": "91440", "id": 281}, {"municipality": "CHAILLY-EN-BRIE", "postcode": "77120", "id": 282}, {"municipality": "POIGNY-LA-FORET", "postcode": "78125", "id": 283}, {"municipality": "QUINCY-SOUS-SENART", "postcode": "91480", "id": 284}, {"municipality": "ISLES-LES-MELDEUSES", "postcode": "77440", "id": 285}, {"municipality": "GALLUIS", "postcode": "78490", "id": 286}, {"municipality": "SOLERS", "postcode": "77111", "id": 287}, {"municipality": "ENNERY", "postcode": "95300", "id": 288}, {"municipality": "AUVERNAUX", "postcode": "91830", "id": 289}, {"municipality": "PUISIEUX", "postcode": "77139", "id": 290}, {"municipality": "BOBIGNY", "postcode": "93000", "id": 291}, {"municipality": "VARREDDES", "postcode": "77910", "id": 292}, {"municipality": "MAINCY", "postcode": "77950", "id": 293}, {"municipality": "FORGES-LES-BAINS", "postcode": "91470", "id": 294}, {"municipality": "MOIGNY-SUR-ECOLE", "postcode": "91490", "id": 295}, {"municipality": "LE PERCHAY", "postcode": "95450", "id": 296}, {"municipality": "BOUAFLE", "postcode": "78410", "id": 297}, {"municipality": "AUTEUIL", "postcode": "78770", "id": 298}, {"municipality": "RUPEREUX", "postcode": "77560", "id": 299}, {"municipality": "BOISSY-LE-CUTTE", "postcode": "91590", "id": 300}, {"municipality": "URY", "postcode": "77760", "id": 301}, {"municipality": "MOUROUX", "postcode": "77120", "id": 302}, {"municipality": "JOUARS-PONTCHARTRAIN", "postcode": "78760", "id": 303}, {"municipality": "FLEURY-MEROGIS", "postcode": "91700", "id": 304}, {"municipality": "COMBS-LA-VILLE", "postcode": "77380", "id": 305}, {"municipality": "BELLOT", "postcode": "77510", "id": 306}, {"municipality": "MENOUVILLE", "postcode": "95810", "id": 307}, {"municipality": "PIERRE-LEVEE", "postcode": "77580", "id": 308}, {"municipality": "SAINT-PIERRE-LES-NEMOURS", "postcode": "77140", "id": 309}, {"municipality": "ORMESSON-SUR-MARNE", "postcode": "94490", "id": 310}, {"municipality": "BEYNES", "postcode": "78650", "id": 311}, {"municipality": "LE PERRAY-EN-YVELINES", "postcode": "78610", "id": 312}, {"municipality": "COURDIMANCHE-SUR-ESSONNE", "postcode": "91720", "id": 313}, {"municipality": "NOISIEL", "postcode": "77186", "id": 314}, {"municipality": "AVERNES", "postcode": "95450", "id": 315}, {"municipality": "ANDREZEL", "postcode": "77390", "id": 316}, {"municipality": "SERAINCOURT", "postcode": "95450", "id": 317}, {"municipality": "VILLEPINTE", "postcode": "93420", "id": 318}, {"municipality": "CHEVRY-COSSIGNY", "postcode": "77173", "id": 319}, {"municipality": "SAINT-SAUVEUR-SUR-ECOLE", "postcode": "77930", "id": 320}, {"municipality": "ABLIS", "postcode": "78660", "id": 321}, {"municipality": "BEZALLES", "postcode": "77970", "id": 322}, {"municipality": "CHOISY-EN-BRIE", "postcode": "77320", "id": 323}, {"municipality": "CONCHES-SUR-GONDOIRE", "postcode": "77600", "id": 324}, {"municipality": "BEZONS", "postcode": "95870", "id": 325}, {"municipality": "BOIS-HERPIN", "postcode": "91150", "id": 326}, {"municipality": "PARIS-5E-ARRONDISSEMENT", "postcode": "75005", "id": 327}, {"municipality": "VILLERON", "postcode": "95380", "id": 328}, {"municipality": "BRUEIL-EN-VEXIN", "postcode": "78440", "id": 329}, {"municipality": "CRESPIERES", "postcode": "78121", "id": 330}, {"municipality": "LA VILLENEUVE-EN-CHEVRIE", "postcode": "78270", "id": 331}, {"municipality": "BOISSY-SOUS-SAINT-YON", "postcode": "91790", "id": 332}, {"municipality": "SAINT-MARTIN-EN-BIERE", "postcode": "77630", "id": 333}, {"municipality": "CHEVREUSE", "postcode": "78460", "id": 334}, {"municipality": "SAINT-SULPICE-DE-FAVIERES", "postcode": "91910", "id": 335}, {"municipality": "MORAINVILLIERS", "postcode": "78630", "id": 336}, {"municipality": "EMERAINVILLE", "postcode": "77184", "id": 337}, {"municipality": "ECOUEN", "postcode": "95440", "id": 338}, {"municipality": "CANNES-ECLUSE", "postcode": "77130", "id": 339}, {"municipality": "SAINT-CYR-L'ECOLE", "postcode": "78210", "id": 340}, {"municipality": "PLESSIS-SAINT-BENOIST", "postcode": "91410", "id": 341}, {"municipality": "LA GARENNE-COLOMBES", "postcode": "92250", "id": 342}, {"municipality": "LA CHAPELLE-GAUTHIER", "postcode": "77720", "id": 343}, {"municipality": "ACHERES-LA-FORET", "postcode": "77760", "id": 344}, {"municipality": "CHAVILLE", "postcode": "92370", "id": 345}, {"municipality": "PONTCARRE", "postcode": "77135", "id": 346}, {"municipality": "VALLANGOUJARD", "postcode": "95810", "id": 347}, {"municipality": "VIGNY", "postcode": "95450", "id": 348}, {"municipality": "LA CELLE-SUR-MORIN", "postcode": "77515", "id": 349}, {"municipality": "BEAUCHAMP", "postcode": "95250", "id": 350}, {"municipality": "VAUCRESSON", "postcode": "92420", "id": 351}, {"municipality": "COURCELLES-SUR-VIOSNE", "postcode": "95650", "id": 352}, {"municipality": "VAUDOY-EN-BRIE", "postcode": "77141", "id": 353}, {"municipality": "MAUREPAS", "postcode": "78310", "id": 354}, {"municipality": "SAINT-GERVAIS", "postcode": "95420", "id": 355}, {"municipality": "VILLIERS-SOUS-GREZ", "postcode": "77760", "id": 356}, {"municipality": "ORVEAU", "postcode": "91590", "id": 357}, {"municipality": "JABLINES", "postcode": "77450", "id": 358}, {"municipality": "AUBERVILLIERS", "postcode": "93300", "id": 359}, {"municipality": "SAULX-MARCHAIS", "postcode": "78650", "id": 360}, {"municipality": "CERNY", "postcode": "91590", "id": 361}, {"municipality": "EPINAY-SOUS-SENART", "postcode": "91860", "id": 362}, {"municipality": "SAACY-SUR-MARNE", "postcode": "77730", "id": 363}, {"municipality": "TROCY-EN-MULTIEN", "postcode": "77440", "id": 364}, {"municipality": "MOISSY-CRAMAYEL", "postcode": "77550", "id": 365}, {"municipality": "THOMERY", "postcode": "77810", "id": 366}, {"municipality": "LE MEE-SUR-SEINE", "postcode": "77350", "id": 367}, {"municipality": "ERMONT", "postcode": "95120", "id": 368}, {"municipality": "VULAINES-LES-PROVINS", "postcode": "77160", "id": 369}, {"municipality": "PERIGNY", "postcode": "94520", "id": 370}, {"municipality": "SOISY-SUR-SEINE", "postcode": "91450", "id": 371}, {"municipality": "BUCHELAY", "postcode": "78200", "id": 372}, {"municipality": "VAUJOURS", "postcode": "93410", "id": 373}, {"municipality": "LUZANCY", "postcode": "77138", "id": 374}, {"municipality": "BAZOCHES-LES-BRAY", "postcode": "77118", "id": 375}, {"municipality": "HARDRICOURT", "postcode": "78250", "id": 376}, {"municipality": "MAREUIL-LES-MEAUX", "postcode": "77100", "id": 377}, {"municipality": "VILLEVAUDE", "postcode": "77410", "id": 378}, {"municipality": "MORET-SUR-LOING", "postcode": "77250", "id": 379}, {"municipality": "HERMERAY", "postcode": "78125", "id": 380}, {"municipality": "CHATILLON", "postcode": "92320", "id": 381}, {"municipality": "ISSOU", "postcode": "78440", "id": 382}, {"municipality": "VICQ", "postcode": "78490", "id": 383}, {"municipality": "SAINT-REMY-L'HONORE", "postcode": "78690", "id": 384}, {"municipality": "CITRY", "postcode": "77730", "id": 385}, {"municipality": "MEROBERT", "postcode": "91780", "id": 386}, {"municipality": "SAINT-BARTHELEMY", "postcode": "77320", "id": 387}, {"municipality": "MONTCOURT-FROMONVILLE", "postcode": "77140", "id": 388}, {"municipality": "WY-DIT-JOLI-VILLAGE", "postcode": "95420", "id": 389}, {"municipality": "EPINAY-SUR-SEINE", "postcode": "93800", "id": 390}, {"municipality": "MONTIGNY-LE-GUESDIER", "postcode": "77480", "id": 391}, {"municipality": "LA FERTE-ALAIS", "postcode": "91590", "id": 392}, {"municipality": "NANTOUILLET", "postcode": "77230", "id": 393}, {"municipality": "RAMBOUILLET", "postcode": "78120", "id": 394}, {"municipality": "COURTRY", "postcode": "77181", "id": 395}, {"municipality": "LE MESNIL-LE-ROI", "postcode": "78600", "id": 396}, {"municipality": "BROU-SUR-CHANTEREINE", "postcode": "77177", "id": 397}, {"municipality": "MOUSSY-LE-NEUF", "postcode": "77230", "id": 398}, {"municipality": "PORT-VILLEZ", "postcode": "78270", "id": 399}, {"municipality": "ECUELLES", "postcode": "77250", "id": 400}, {"municipality": "VILLEMARECHAL", "postcode": "77710", "id": 401}, {"municipality": "SAINT-ILLIERS-LA-VILLE", "postcode": "78980", "id": 402}, {"municipality": "SAINT-SAUVEUR-LES-BRAY", "postcode": "77480", "id": 403}, {"municipality": "VEMARS", "postcode": "95470", "id": 404}, {"municipality": "DAMPMART", "postcode": "77400", "id": 405}, {"municipality": "CORBEIL-ESSONNES", "postcode": "91100", "id": 406}, {"municipality": "AUVERS-SUR-OISE", "postcode": "95430", "id": 407}, {"municipality": "VILLENEUVE-SAINT-GEORGES", "postcode": "94190", "id": 408}, {"municipality": "NEUILLY-SUR-SEINE", "postcode": "92200", "id": 409}, {"municipality": "BIEVRES", "postcode": "91570", "id": 410}, {"municipality": "CHAMPAGNE-SUR-OISE", "postcode": "95660", "id": 411}, {"municipality": "ORMOY", "postcode": "91540", "id": 412}, {"municipality": "ROSNY-SUR-SEINE", "postcode": "78710", "id": 413}, {"municipality": "ROUILLY", "postcode": "77160", "id": 414}, {"municipality": "MESSY", "postcode": "77410", "id": 415}, {"municipality": "SAINT-FARGEAU-PONTHIERRY", "postcode": "77310", "id": 416}, {"municipality": "SAINT-MARTIN-DU-TERTRE", "postcode": "95270", "id": 417}, {"municipality": "TRILBARDOU", "postcode": "77450", "id": 418}, {"municipality": "YERRES", "postcode": "91330", "id": 419}, {"municipality": "MITTAINVILLE", "postcode": "78125", "id": 420}, {"municipality": "DOUE", "postcode": "77510", "id": 421}, {"municipality": "PERSAN", "postcode": "95340", "id": 422}, {"municipality": "REUIL-EN-BRIE", "postcode": "77260", "id": 423}, {"municipality": "TESSANCOURT-SUR-AUBETTE", "postcode": "78250", "id": 424}, {"municipality": "PISCOP", "postcode": "95350", "id": 425}, {"municipality": "ORSAY", "postcode": "91400", "id": 426}, {"municipality": "ROSNY-SOUS-BOIS", "postcode": "93110", "id": 427}, {"municipality": "MOISSELLES", "postcode": "95570", "id": 428}, {"municipality": "HARAVILLIERS", "postcode": "95640", "id": 429}, {"municipality": "LUZARCHES", "postcode": "95270", "id": 430}, {"municipality": "BOURG-LA-REINE", "postcode": "92340", "id": 431}, {"municipality": "LE CHESNAY", "postcode": "78150", "id": 432}, {"municipality": "MESPUITS", "postcode": "91150", "id": 433}, {"municipality": "BRY-SUR-MARNE", "postcode": "94360", "id": 434}, {"municipality": "ORMOY-LA-RIVIERE", "postcode": "91150", "id": 435}, {"municipality": "TOUSSUS-LE-NOBLE", "postcode": "78117", "id": 436}, {"municipality": "VIROFLAY", "postcode": "78220", "id": 437}, {"municipality": "LA TOMBE", "postcode": "77130", "id": 438}, {"municipality": "BALLAINVILLIERS", "postcode": "91160", "id": 439}, {"municipality": "BOIS-COLOMBES", "postcode": "92270", "id": 440}, {"municipality": "ENGHIEN-LES-BAINS", "postcode": "95880", "id": 441}, {"municipality": "SANCY-LES-PROVINS", "postcode": "77320", "id": 442}, {"municipality": "GRESSEY", "postcode": "78550", "id": 443}, {"municipality": "PARIS-12E-ARRONDISSEMENT", "postcode": "75012", "id": 444}, {"municipality": "MAROLLES-EN-BRIE", "postcode": "77120", "id": 445}, {"municipality": "ORVILLIERS", "postcode": "78910", "id": 446}, {"municipality": "AUFFREVILLE-BRASSEUIL", "postcode": "78930", "id": 447}, {"municipality": "ANGERVILLE", "postcode": "91670", "id": 448}, {"municipality": "LA CHAPELLE-LA-REINE", "postcode": "77760", "id": 449}, {"municipality": "BANTHELU", "postcode": "95420", "id": 450}, {"municipality": "SAINT-CYR-EN-ARTHIES", "postcode": "95510", "id": 451}, {"municipality": "CLICHY", "postcode": "92110", "id": 452}, {"municipality": "SAINTE-AULDE", "postcode": "77260", "id": 453}, {"municipality": "PIERRELAYE", "postcode": "95480", "id": 454}, {"municipality": "NANGIS", "postcode": "77370", "id": 455}, {"municipality": "SAINT-ARNOULT-EN-YVELINES", "postcode": "78730", "id": 456}, {"municipality": "BELLEFONTAINE", "postcode": "95270", "id": 457}, {"municipality": "PALEY", "postcode": "77710", "id": 458}, {"municipality": "BOISSETTES", "postcode": "77350", "id": 459}, {"municipality": "SACLAY", "postcode": "91400", "id": 460}, {"municipality": "NEMOURS", "postcode": "77140", "id": 461}, {"municipality": "MARY-SUR-MARNE", "postcode": "77440", "id": 462}, {"municipality": "JOUY-EN-JOSAS", "postcode": "78350", "id": 463}, {"municipality": "LE VAUDOUE", "postcode": "77123", "id": 464}, {"municipality": "IGNY", "postcode": "91430", "id": 465}, {"municipality": "LONGNES", "postcode": "78980", "id": 466}, {"municipality": "BAILLY", "postcode": "78870", "id": 467}, {"municipality": "SAINT-GRATIEN", "postcode": "95210", "id": 468}, {"municipality": "LEUVILLE-SUR-ORGE", "postcode": "91310", "id": 469}, {"municipality": "SALINS", "postcode": "77148", "id": 470}, {"municipality": "AMPONVILLE", "postcode": "77760", "id": 471}, {"municipality": "GIREMOUTIERS", "postcode": "77120", "id": 472}, {"municipality": "PARIS-2E-ARRONDISSEMENT", "postcode": "75002", "id": 473}, {"municipality": "SAINT-CHERON", "postcode": "91530", "id": 474}, {"municipality": "L'ILE-SAINT-DENIS", "postcode": "93450", "id": 475}, {"municipality": "CHATENAY-MALABRY", "postcode": "92290", "id": 476}, {"municipality": "FONTAINE-LE-PORT", "postcode": "77590", "id": 477}, {"municipality": "VANVILLE", "postcode": "77370", "id": 478}, {"municipality": "BEAUVOIR", "postcode": "77390", "id": 479}, {"municipality": "ARGENTEUIL", "postcode": "95100", "id": 480}, {"municipality": "LE PLESSIS-FEU-AUSSOUX", "postcode": "77540", "id": 481}, {"municipality": "SEINE-PORT", "postcode": "77240", "id": 482}, {"municipality": "AUTOUILLET", "postcode": "78770", "id": 483}, {"municipality": "VIGNELY", "postcode": "77450", "id": 484}, {"municipality": "MORSANG-SUR-SEINE", "postcode": "91250", "id": 485}, {"municipality": "VIRY-CHATILLON", "postcode": "91170", "id": 486}, {"municipality": "BUSSY-SAINT-MARTIN", "postcode": "77600", "id": 487}, {"municipality": "CLAIREFONTAINE-EN-YVELINES", "postcode": "78120", "id": 488}, {"municipality": "LES MESNULS", "postcode": "78490", "id": 489}, {"municipality": "BURCY", "postcode": "77760", "id": 490}, {"municipality": "SAINTE-GENEVIEVE-DES-BOIS", "postcode": "91700", "id": 491}, {"municipality": "RUEIL-MALMAISON", "postcode": "92500", "id": 492}, {"municipality": "COURANCES", "postcode": "91490", "id": 493}, {"municipality": "VILLEJUIF", "postcode": "94800", "id": 494}, {"municipality": "HERICY", "postcode": "77850", "id": 495}, {"municipality": "BOITRON", "postcode": "77750", "id": 496}, {"municipality": "CHATIGNONVILLE", "postcode": "91410", "id": 497}, {"municipality": "BOISSY-SAINT-LEGER", "postcode": "94470", "id": 498}, {"municipality": "EPIAIS-LES-LOUVRES", "postcode": "95380", "id": 499}, {"municipality": "VILLEJUST", "postcode": "91140", "id": 500}, {"municipality": "BARCY", "postcode": "77910", "id": 501}, {"municipality": "VAUX-SUR-SEINE", "postcode": "78740", "id": 502}, {"municipality": "LE PLESSIS-LUZARCHES", "postcode": "95270", "id": 503}, {"municipality": "AINCOURT", "postcode": "95510", "id": 504}, {"municipality": "BOISEMONT", "postcode": "95000", "id": 505}, {"municipality": "MARCHEMORET", "postcode": "77230", "id": 506}, {"municipality": "CROSNE", "postcode": "91560", "id": 507}, {"municipality": "SAILLY", "postcode": "78440", "id": 508}, {"municipality": "LA CELLE-SAINT-CLOUD", "postcode": "78170", "id": 509}, {"municipality": "TILLY", "postcode": "78790", "id": 510}, {"municipality": "SAINT-REMY-LES-CHEVREUSE", "postcode": "78470", "id": 511}, {"municipality": "LIVERDY-EN-BRIE", "postcode": "77220", "id": 512}, {"municipality": "SANTENY", "postcode": "94440", "id": 513}, {"municipality": "BUHY", "postcode": "95770", "id": 514}, {"municipality": "MONTEREAU-FAULT-YONNE", "postcode": "77130", "id": 515}, {"municipality": "VILLE-SAINT-JACQUES", "postcode": "77130", "id": 516}, {"municipality": "SACLAS", "postcode": "91690", "id": 517}, {"municipality": "ASNIERES-SUR-SEINE", "postcode": "92600", "id": 518}, {"municipality": "NERVILLE-LA-FORET", "postcode": "95590", "id": 519}, {"municipality": "CHARMENTRAY", "postcode": "77410", "id": 520}, {"municipality": "LIZINES", "postcode": "77650", "id": 521}, {"municipality": "SCEAUX", "postcode": "92330", "id": 522}, {"municipality": "LAVAL-EN-BRIE", "postcode": "77148", "id": 523}, {"municipality": "PARMAIN", "postcode": "95620", "id": 524}, {"municipality": "MONTARLOT", "postcode": "77250", "id": 525}, {"municipality": "MAROLLES-EN-BEAUCE", "postcode": "91150", "id": 526}, {"municipality": "TREUZY-LEVELAY", "postcode": "77710", "id": 527}, {"municipality": "SAINT-LEGER-EN-YVELINES", "postcode": "78610", "id": 528}, {"municipality": "LIMOGES-FOURCHES", "postcode": "77550", "id": 529}, {"municipality": "LOUAN-VILLEGRUIS-FONTAINE", "postcode": "77560", "id": 530}, {"municipality": "SOUPPES-SUR-LOING", "postcode": "77460", "id": 531}, {"municipality": "BASSEVELLE", "postcode": "77750", "id": 532}, {"municipality": "GREZ-SUR-LOING", "postcode": "77880", "id": 533}, {"municipality": "LASSY", "postcode": "95270", "id": 534}, {"municipality": "CHAMPCUEIL", "postcode": "91750", "id": 535}, {"municipality": "TIGEAUX", "postcode": "77163", "id": 536}, {"municipality": "PUISEUX-EN-FRANCE", "postcode": "95380", "id": 537}, {"municipality": "MOISENAY", "postcode": "77950", "id": 538}, {"municipality": "BREUX-JOUY", "postcode": "91650", "id": 539}, {"municipality": "SAINT-CYR-LA-RIVIERE", "postcode": "91690", "id": 540}, {"municipality": "CHATEAU-LANDON", "postcode": "77570", "id": 541}, {"municipality": "VINANTES", "postcode": "77230", "id": 542}, {"municipality": "BONNEUIL-EN-FRANCE", "postcode": "95500", "id": 543}, {"municipality": "THOIRY", "postcode": "78770", "id": 544}, {"municipality": "LIMEIL-BREVANNES", "postcode": "94450", "id": 545}, {"municipality": "LA VERRIERE", "postcode": "78320", "id": 546}, {"municipality": "VAUDHERLAND", "postcode": "95500", "id": 547}, {"municipality": "JAMBVILLE", "postcode": "78440", "id": 548}, {"municipality": "CHAUSSY", "postcode": "95710", "id": 549}, {"municipality": "LE BLANC-MESNIL", "postcode": "93150", "id": 550}, {"municipality": "VERNEUIL-SUR-SEINE", "postcode": "78480", "id": 551}, {"municipality": "LIEUSAINT", "postcode": "77127", "id": 552}, {"municipality": "SAINT-FORGET", "postcode": "78720", "id": 553}, {"municipality": "ANGERVILLIERS", "postcode": "91470", "id": 554}, {"municipality": "BELLOY-EN-FRANCE", "postcode": "95270", "id": 555}, {"municipality": "ABBEVILLE-LA-RIVIERE", "postcode": "91150", "id": 556}, {"municipality": "GRISY-LES-PLATRES", "postcode": "95810", "id": 557}, {"municipality": "CHAUFOUR-LES-BONNIERES", "postcode": "78270", "id": 558}, {"municipality": "MITRY-MORY", "postcode": "77290", "id": 559}, {"municipality": "MAROLLES-EN-HUREPOIX", "postcode": "91630", "id": 560}, {"municipality": "THIAIS", "postcode": "94320", "id": 561}, {"municipality": "GOUZANGREZ", "postcode": "95450", "id": 562}, {"municipality": "DAMMARIE-LES-LYS", "postcode": "77190", "id": 563}, {"municipality": "VENDREST", "postcode": "77440", "id": 564}, {"municipality": "TACOIGNIERES", "postcode": "78910", "id": 565}, {"municipality": "FREMECOURT", "postcode": "95830", "id": 566}, {"municipality": "GARENTREVILLE", "postcode": "77890", "id": 567}, {"municipality": "LA HAUTE-MAISON", "postcode": "77580", "id": 568}, {"municipality": "DAMPIERRE-EN-YVELINES", "postcode": "78720", "id": 569}, {"municipality": "BOMBON", "postcode": "77720", "id": 570}, {"municipality": "BUSSY-SAINT-GEORGES", "postcode": "77600", "id": 571}, {"municipality": "PALAISEAU", "postcode": "91120", "id": 572}, {"municipality": "BOISSY-LA-RIVIERE", "postcode": "91690", "id": 573}, {"municipality": "PRINGY", "postcode": "77310", "id": 574}, {"municipality": "SAINT-MAUR-DES-FOSSES", "postcode": "94100", "id": 575}, {"municipality": "SAINT-MAUR-DES-FOSSES", "postcode": "94210", "id": 576}, {"municipality": "MONTMACHOUX", "postcode": "77940", "id": 577}, {"municipality": "MALAKOFF", "postcode": "92240", "id": 578}, {"municipality": "DORMELLES", "postcode": "77130", "id": 579}, {"municipality": "LES GRANGES-LE-ROI", "postcode": "91410", "id": 580}, {"municipality": "GOMETZ-LA-VILLE", "postcode": "91400", "id": 581}, {"municipality": "LA CROIX-EN-BRIE", "postcode": "77370", "id": 582}, {"municipality": "MONTGERON", "postcode": "91230", "id": 583}, {"municipality": "CHARTRONGES", "postcode": "77320", "id": 584}, {"municipality": "MONTMORENCY", "postcode": "95160", "id": 585}, {"municipality": "PARIS-11E-ARRONDISSEMENT", "postcode": "75011", "id": 586}, {"municipality": "FORFRY", "postcode": "77165", "id": 587}, {"municipality": "VALENCE-EN-BRIE", "postcode": "77830", "id": 588}, {"municipality": "MONTLIGNON", "postcode": "95680", "id": 589}, {"municipality": "BOUGIVAL", "postcode": "78380", "id": 590}, {"municipality": "SAINT-LAMBERT", "postcode": "78470", "id": 591}, {"municipality": "HARGEVILLE", "postcode": "78790", "id": 592}, {"municipality": "VILLEPREUX", "postcode": "78450", "id": 593}, {"municipality": "LA CHAPELLE-EN-VEXIN", "postcode": "95420", "id": 594}, {"municipality": "LA CHAPELLE-MOUTILS", "postcode": "77320", "id": 595}, {"municipality": "CHAMPCENEST", "postcode": "77560", "id": 596}, {"municipality": "MONTALET-LE-BOIS", "postcode": "78440", "id": 597}, {"municipality": "VILLIERS-SUR-SEINE", "postcode": "77114", "id": 598}, {"municipality": "FAY-LES-NEMOURS", "postcode": "77167", "id": 599}, {"municipality": "MEREVILLE", "postcode": "91660", "id": 600}, {"municipality": "BOISSY-AUX-CAILLES", "postcode": "77760", "id": 601}, {"municipality": "EPISY", "postcode": "77250", "id": 602}, {"municipality": "SOUZY-LA-BRICHE", "postcode": "91580", "id": 603}, {"municipality": "ROMAINVILLE", "postcode": "93230", "id": 604}, {"municipality": "CARRIERES-SOUS-POISSY", "postcode": "78955", "id": 605}, {"municipality": "LES LOGES-EN-JOSAS", "postcode": "78350", "id": 606}, {"municipality": "FONTENAY-SAINT-PERE", "postcode": "78440", "id": 607}, {"municipality": "SAINT-MAURICE-MONTCOURONNE", "postcode": "91530", "id": 608}, {"municipality": "JUZIERS", "postcode": "78820", "id": 609}, {"municipality": "CHEPTAINVILLE", "postcode": "91630", "id": 610}, {"municipality": "VERT-LE-PETIT", "postcode": "91710", "id": 611}, {"municipality": "CHAMPEAUX", "postcode": "77720", "id": 612}, {"municipality": "MULCENT", "postcode": "78790", "id": 613}, {"municipality": "BEAUMONT-SUR-OISE", "postcode": "95260", "id": 614}, {"municipality": "FLINS-NEUVE-EGLISE", "postcode": "78790", "id": 615}, {"municipality": "JANVRY", "postcode": "91640", "id": 616}, {"municipality": "CONDECOURT", "postcode": "95450", "id": 617}, {"municipality": "NEAUPHLE-LE-VIEUX", "postcode": "78640", "id": 618}, {"municipality": "BREUILLET", "postcode": "91650", "id": 619}, {"municipality": "BAZEMONT", "postcode": "78580", "id": 620}, {"municipality": "FRETOY", "postcode": "77320", "id": 621}, {"municipality": "ACHERES", "postcode": "78260", "id": 622}, {"municipality": "GARANCIERES", "postcode": "78890", "id": 623}, {"municipality": "SAINT-SIMEON", "postcode": "77169", "id": 624}, {"municipality": "MERE", "postcode": "78490", "id": 625}, {"municipality": "FLEURY-EN-BIERE", "postcode": "77930", "id": 626}, {"municipality": "L'ISLE-ADAM", "postcode": "95290", "id": 627}, {"municipality": "GOUVERNES", "postcode": "77400", "id": 628}, {"municipality": "AUBEPIERRE-OZOUER-LE-REPOS", "postcode": "77720", "id": 629}, {"municipality": "SAINT-MESMES", "postcode": "77410", "id": 630}, {"municipality": "LES CLAYES-SOUS-BOIS", "postcode": "78340", "id": 631}, {"municipality": "BALLOY", "postcode": "77118", "id": 632}, {"municipality": "GADANCOURT", "postcode": "95450", "id": 633}, {"municipality": "SAINT-AUGUSTIN", "postcode": "77515", "id": 634}, {"municipality": "VILLEBEON", "postcode": "77710", "id": 635}, {"municipality": "SAINT-ILLIERS-LE-BOIS", "postcode": "78980", "id": 636}, {"municipality": "CHATENOY", "postcode": "77167", "id": 637}, {"municipality": "TRIEL-SUR-SEINE", "postcode": "78510", "id": 638}, {"municipality": "LAINVILLE-EN-VEXIN", "postcode": "78440", "id": 639}, {"municipality": "VILLENEUVE-LE-ROI", "postcode": "94290", "id": 640}, {"municipality": "MILON-LA-CHAPELLE", "postcode": "78470", "id": 641}, {"municipality": "MELUN", "postcode": "77000", "id": 642}, {"municipality": "LINAS", "postcode": "91310", "id": 643}, {"municipality": "LA BOISSIERE-ECOLE", "postcode": "78125", "id": 644}, {"municipality": "LONGVILLIERS", "postcode": "78730", "id": 645}, {"municipality": "LOGNES", "postcode": "77185", "id": 646}, {"municipality": "BOISDON", "postcode": "77970", "id": 647}, {"municipality": "SAINT-MARD", "postcode": "77230", "id": 648}, {"municipality": "NOISY-LE-GRAND", "postcode": "93160", "id": 649}, {"municipality": "BOURAY-SUR-JUINE", "postcode": "91850", "id": 650}, {"municipality": "HOUILLES", "postcode": "78800", "id": 651}, {"municipality": "COURPALAY", "postcode": "77540", "id": 652}, {"municipality": "LE PERREUX-SUR-MARNE", "postcode": "94170", "id": 653}, {"municipality": "DAVRON", "postcode": "78810", "id": 654}, {"municipality": "CHAMARANDE", "postcode": "91730", "id": 655}, {"municipality": "LONGPERRIER", "postcode": "77230", "id": 656}, {"municipality": "NANTEAU-SUR-ESSONNE", "postcode": "77760", "id": 657}, {"municipality": "SUCY-EN-BRIE", "postcode": "94370", "id": 658}, {"municipality": "GURCY-LE-CHATEL", "postcode": "77520", "id": 659}, {"municipality": "MAISSE", "postcode": "91720", "id": 660}, {"municipality": "NEUILLY-SUR-MARNE", "postcode": "93330", "id": 661}, {"municipality": "LAGNY-SUR-MARNE", "postcode": "77400", "id": 662}, {"municipality": "CHAUMONTEL", "postcode": "95270", "id": 663}, {"municipality": "BONDOUFLE", "postcode": "91070", "id": 664}, {"municipality": "MELZ-SUR-SEINE", "postcode": "77171", "id": 665}, {"municipality": "COUTENCON", "postcode": "77154", "id": 666}, {"municipality": "SAINT-PRIX", "postcode": "95390", "id": 667}, {"municipality": "MAREIL-MARLY", "postcode": "78750", "id": 668}, {"municipality": "GASTINS", "postcode": "77370", "id": 669}, {"municipality": "LE MESNIL-SAINT-DENIS", "postcode": "78320", "id": 670}, {"municipality": "MONNERVILLE", "postcode": "91930", "id": 671}, {"municipality": "BRETIGNY-SUR-ORGE", "postcode": "91220", "id": 672}, {"municipality": "COMPANS", "postcode": "77290", "id": 673}, {"municipality": "RUBELLES", "postcode": "77950", "id": 674}, {"municipality": "THIVERVAL-GRIGNON", "postcode": "78850", "id": 675}, {"municipality": "CHAUFFRY", "postcode": "77169", "id": 676}, {"municipality": "COURDIMANCHE", "postcode": "95800", "id": 677}, {"municipality": "PARIS-6E-ARRONDISSEMENT", "postcode": "75006", "id": 678}, {"municipality": "LA FERTE-SOUS-JOUARRE", "postcode": "77260", "id": 679}, {"municipality": "EPONE", "postcode": "78680", "id": 680}, {"municipality": "VILLIERS-SAINT-GEORGES", "postcode": "77560", "id": 681}, {"municipality": "SAINT-HILARION", "postcode": "78125", "id": 682}, {"municipality": "MAULE", "postcode": "78580", "id": 683}, {"municipality": "POISSY", "postcode": "78300", "id": 684}, {"municipality": "NUCOURT", "postcode": "95420", "id": 685}, {"municipality": "CRISENOY", "postcode": "77390", "id": 686}, {"municipality": "BEAUMONT-DU-GATINAIS", "postcode": "77890", "id": 687}, {"municipality": "BOISSISE-LA-BERTRAND", "postcode": "77350", "id": 688}, {"municipality": "GUIGNES", "postcode": "77390", "id": 689}, {"municipality": "SAINT-JEAN-DE-BEAUREGARD", "postcode": "91940", "id": 690}, {"municipality": "CREGY-LES-MEAUX", "postcode": "77124", "id": 691}, {"municipality": "RAIZEUX", "postcode": "78125", "id": 692}, {"municipality": "FAREMOUTIERS", "postcode": "77515", "id": 693}, {"municipality": "LESIGNY", "postcode": "77150", "id": 694}, {"municipality": "LIMAY", "postcode": "78520", "id": 695}, {"municipality": "LA FALAISE", "postcode": "78410", "id": 696}, {"municipality": "SAGY", "postcode": "95450", "id": 697}, {"municipality": "NOISY-SUR-OISE", "postcode": "95270", "id": 698}, {"municipality": "VOISENON", "postcode": "77950", "id": 699}, {"municipality": "COUPVRAY", "postcode": "77700", "id": 700}, {"municipality": "CHAMPLAN", "postcode": "91160", "id": 701}, {"municipality": "CHATILLON-LA-BORDE", "postcode": "77820", "id": 702}, {"municipality": "LA FORET-SAINTE-CROIX", "postcode": "91150", "id": 703}, {"municipality": "PARAY-DOUAVILLE", "postcode": "78660", "id": 704}, {"municipality": "TOUSSON", "postcode": "77123", "id": 705}, {"municipality": "VILLENEUVE-LE-COMTE", "postcode": "77174", "id": 706}, {"municipality": "GUIGNEVILLE-SUR-ESSONNE", "postcode": "91590", "id": 707}, {"municipality": "SAINT-OUEN-SUR-MORIN", "postcode": "77750", "id": 708}, {"municipality": "DHUISY", "postcode": "77440", "id": 709}, {"municipality": "LE HEAULME", "postcode": "95640", "id": 710}, {"municipality": "MOURS", "postcode": "95260", "id": 711}, {"municipality": "MAREIL-SUR-MAULDRE", "postcode": "78124", "id": 712}, {"municipality": "SAINT-FIACRE", "postcode": "77470", "id": 713}, {"municipality": "LA ROCHE-GUYON", "postcode": "95780", "id": 714}, {"municipality": "BONDY", "postcode": "93140", "id": 715}, {"municipality": "TOURNAN-EN-BRIE", "postcode": "77220", "id": 716}, {"municipality": "EAUBONNE", "postcode": "95600", "id": 717}, {"municipality": "LA VILLE-DU-BOIS", "postcode": "91620", "id": 718}, {"municipality": "DARVAULT", "postcode": "77140", "id": 719}, {"municipality": "VILLIERS-LE-SEC", "postcode": "95720", "id": 720}, {"municipality": "GOUAIX", "postcode": "77114", "id": 721}, {"municipality": "THEMERICOURT", "postcode": "95450", "id": 722}, {"municipality": "POIGNY", "postcode": "77160", "id": 723}, {"municipality": "BEHOUST", "postcode": "78910", "id": 724}, {"municipality": "CRETEIL", "postcode": "94000", "id": 725}, {"municipality": "GOURNAY-SUR-MARNE", "postcode": "93460", "id": 726}, {"municipality": "CHELLES", "postcode": "77500", "id": 727}, {"municipality": "VILLENEUVE-LA-GARENNE", "postcode": "92390", "id": 728}, {"municipality": "PONTHEVRARD", "postcode": "78730", "id": 729}, {"municipality": "MAUDETOUR-EN-VEXIN", "postcode": "95420", "id": 730}, {"municipality": "MORTCERF", "postcode": "77163", "id": 731}, {"municipality": "MONTIGNY-SUR-LOING", "postcode": "77690", "id": 732}, {"municipality": "JANVILLE-SUR-JUINE", "postcode": "91510", "id": 733}, {"municipality": "ORCEMONT", "postcode": "78125", "id": 734}, {"municipality": "OBSONVILLE", "postcode": "77890", "id": 735}, {"municipality": "PENCHARD", "postcode": "77124", "id": 736}, {"municipality": "LES ECRENNES", "postcode": "77820", "id": 737}, {"municipality": "BUSSIERES", "postcode": "77750", "id": 738}, {"municipality": "SERRIS", "postcode": "77700", "id": 739}, {"municipality": "LE RAINCY", "postcode": "93340", "id": 740}, {"municipality": "COUTEVROULT", "postcode": "77580", "id": 741}, {"municipality": "DOURDAN", "postcode": "91410", "id": 742}, {"municipality": "PARIS-13E-ARRONDISSEMENT", "postcode": "75013", "id": 743}, {"municipality": "FLEXANVILLE", "postcode": "78910", "id": 744}, {"municipality": "LECHELLE", "postcode": "77171", "id": 745}, {"municipality": "NEZEL", "postcode": "78410", "id": 746}, {"municipality": "CHALAUTRE-LA-PETITE", "postcode": "77160", "id": 747}, {"municipality": "AUGERS-EN-BRIE", "postcode": "77560", "id": 748}, {"municipality": "SAINT-CLAIR-SUR-EPTE", "postcode": "95770", "id": 749}, {"municipality": "SOISY-SUR-ECOLE", "postcode": "91840", "id": 750}, {"municipality": "GERMIGNY-L'EVEQUE", "postcode": "77910", "id": 751}, {"municipality": "MONTFERMEIL", "postcode": "93370", "id": 752}, {"municipality": "LIVRY-GARGAN", "postcode": "93190", "id": 753}, {"municipality": "VILLEMAREUIL", "postcode": "77470", "id": 754}, {"municipality": "SAINTE-COLOMBE", "postcode": "77650", "id": 755}, {"municipality": "NOISY-LE-SEC", "postcode": "93130", "id": 756}, {"municipality": "MONTLHERY", "postcode": "91310", "id": 757}, {"municipality": "JUVISY-SUR-ORGE", "postcode": "91260", "id": 758}, {"municipality": "MANDRES-LES-ROSES", "postcode": "94520", "id": 759}, {"municipality": "ROSAY", "postcode": "78790", "id": 760}, {"municipality": "CHOISY-LE-ROI", "postcode": "94600", "id": 761}, {"municipality": "SERVON", "postcode": "77170", "id": 762}, {"municipality": "RUNGIS", "postcode": "94150", "id": 763}, {"municipality": "BRUNOY", "postcode": "91800", "id": 764}, {"municipality": "GUERMANTES", "postcode": "77600", "id": 765}, {"municipality": "LIMETZ-VILLEZ", "postcode": "78270", "id": 766}, {"municipality": "ANNET-SUR-MARNE", "postcode": "77410", "id": 767}, {"municipality": "LE PLESSIS-ROBINSON", "postcode": "92350", "id": 768}, {"municipality": "VOULTON", "postcode": "77560", "id": 769}, {"municipality": "TRAPPES", "postcode": "78190", "id": 770}, {"municipality": "MEAUX", "postcode": "77100", "id": 771}, {"municipality": "VAUX-SUR-LUNAIN", "postcode": "77710", "id": 772}, {"municipality": "FUBLAINES", "postcode": "77470", "id": 773}, {"municipality": "NANTEUIL-SUR-MARNE", "postcode": "77730", "id": 774}, {"municipality": "CHAUMES-EN-BRIE", "postcode": "77390", "id": 775}, {"municipality": "VELIZY-VILLACOUBLAY", "postcode": "78140", "id": 776}, {"municipality": "DIANT", "postcode": "77940", "id": 777}, {"municipality": "SANNOIS", "postcode": "95110", "id": 778}, {"municipality": "NOZAY", "postcode": "91620", "id": 779}, {"municipality": "GROSLAY", "postcode": "95410", "id": 780}, {"municipality": "BAULNE", "postcode": "91590", "id": 781}, {"municipality": "MAREIL-LE-GUYON", "postcode": "78490", "id": 782}, {"municipality": "MONTESSON", "postcode": "78360", "id": 783}, {"municipality": "ADAINVILLE", "postcode": "78113", "id": 784}, {"municipality": "HEROUVILLE", "postcode": "95300", "id": 785}, {"municipality": "USSY-SUR-MARNE", "postcode": "77260", "id": 786}, {"municipality": "EVERLY", "postcode": "77157", "id": 787}, {"municipality": "SAINT-MARS-VIEUX-MAISONS", "postcode": "77320", "id": 788}, {"municipality": "EPINAY-SUR-ORGE", "postcode": "91360", "id": 789}, {"municipality": "GIF-SUR-YVETTE", "postcode": "91190", "id": 790}, {"municipality": "JOUARRE", "postcode": "77640", "id": 791}, {"municipality": "LA NORVILLE", "postcode": "91290", "id": 792}, {"municipality": "FONTAINE-FOURCHES", "postcode": "77480", "id": 793}, {"municipality": "CHAINTREAUX", "postcode": "77460", "id": 794}, {"municipality": "BRIGNANCOURT", "postcode": "95640", "id": 795}, {"municipality": "SANCY", "postcode": "77580", "id": 796}, {"municipality": "THENISY", "postcode": "77520", "id": 797}, {"municipality": "MONDREVILLE", "postcode": "77570", "id": 798}, {"municipality": "MERY-SUR-MARNE", "postcode": "77730", "id": 799}, {"municipality": "BULLION", "postcode": "78830", "id": 800}, {"municipality": "CHEVRY-EN-SEREINE", "postcode": "77710", "id": 801}, {"municipality": "PARAY-VIEILLE-POSTE", "postcode": "91550", "id": 802}, {"municipality": "CELY", "postcode": "77930", "id": 803}, {"municipality": "LE PIN", "postcode": "77181", "id": 804}, {"municipality": "LE MESNIL-AMELOT", "postcode": "77990", "id": 805}, {"municipality": "MONTREUIL-SUR-EPTE", "postcode": "95770", "id": 806}, {"municipality": "MONTEVRAIN", "postcode": "77144", "id": 807}, {"municipality": "CHALMAISON", "postcode": "77650", "id": 808}, {"municipality": "MONTREUIL", "postcode": "93100", "id": 809}, {"municipality": "PARIS-10E-ARRONDISSEMENT", "postcode": "75010", "id": 810}, {"municipality": "SAINT-MANDE", "postcode": "94160", "id": 811}, {"municipality": "NEUVILLE-SUR-OISE", "postcode": "95000", "id": 812}, {"municipality": "SAINT-GERMAIN-SUR-MORIN", "postcode": "77860", "id": 813}, {"municipality": "LE PLESSIS-PATE", "postcode": "91220", "id": 814}, {"municipality": "DANNEMARIE", "postcode": "78550", "id": 815}, {"municipality": "MARLY-LA-VILLE", "postcode": "95670", "id": 816}, {"municipality": "BOISSY-SANS-AVOIR", "postcode": "78490", "id": 817}, {"municipality": "SAINT-LEU-LA-FORET", "postcode": "95320", "id": 818}, {"municipality": "VILLEBON-SUR-YVETTE", "postcode": "91140", "id": 819}, {"municipality": "MONTCEAUX-LES-PROVINS", "postcode": "77151", "id": 820}, {"municipality": "LE TARTRE-GAUDRAN", "postcode": "78113", "id": 821}, {"municipality": "AULNAY-SOUS-BOIS", "postcode": "93600", "id": 822}, {"municipality": "MOUSSY-LE-VIEUX", "postcode": "77230", "id": 823}, {"municipality": "OTHIS", "postcode": "77280", "id": 824}, {"municipality": "LA MADELEINE-SUR-LOING", "postcode": "77570", "id": 825}, {"municipality": "LES MOLIERES", "postcode": "91470", "id": 826}, {"municipality": "SAINT-HILLIERS", "postcode": "77160", "id": 827}, {"municipality": "SAINT-OUEN-EN-BRIE", "postcode": "77720", "id": 828}, {"municipality": "FONTENAY-EN-PARISIS", "postcode": "95190", "id": 829}, {"municipality": "TRILPORT", "postcode": "77470", "id": 830}, {"municipality": "COURTOMER", "postcode": "77390", "id": 831}, {"municipality": "MACHAULT", "postcode": "77133", "id": 832}, {"municipality": "JAULNES", "postcode": "77480", "id": 833}, {"municipality": "MENNECY", "postcode": "91540", "id": 834}, {"municipality": "GRAVON", "postcode": "77118", "id": 835}, {"municipality": "CHAMPDEUIL", "postcode": "77390", "id": 836}, {"municipality": "LA CELLE-LES-BORDES", "postcode": "78720", "id": 837}, {"municipality": "AVON", "postcode": "77210", "id": 838}, {"municipality": "BOUTERVILLIERS", "postcode": "91150", "id": 839}, {"municipality": "LOUVRES", "postcode": "95380", "id": 840}, {"municipality": "JOUY-LE-MOUTIER", "postcode": "95280", "id": 841}, {"municipality": "VANVES", "postcode": "92170", "id": 842}, {"municipality": "ISSY-LES-MOULINEAUX", "postcode": "92130", "id": 843}, {"municipality": "VILLEMOMBLE", "postcode": "93250", "id": 844}, {"municipality": "BREVAL", "postcode": "78980", "id": 845}, {"municipality": "MEUDON", "postcode": "92190/92360", "id": 846}, {"municipality": "VOISINS-LE-BRETONNEUX", "postcode": "78960", "id": 847}, {"municipality": "SAMOIS-SUR-SEINE", "postcode": "77920", "id": 848}, {"municipality": "CHERENCE", "postcode": "95510", "id": 849}, {"municipality": "MONTGE-EN-GOELE", "postcode": "77230", "id": 850}, {"municipality": "SAINT-BRICE", "postcode": "77160", "id": 851}, {"municipality": "EVECQUEMONT", "postcode": "78740", "id": 852}, {"municipality": "LA BROSSE-MONTCEAUX", "postcode": "77940", "id": 853}, {"municipality": "CHAPET", "postcode": "78130", "id": 854}, {"municipality": "PROVINS", "postcode": "77160", "id": 855}, {"municipality": "VILLAINES-SOUS-BOIS", "postcode": "95570", "id": 856}, {"municipality": "VILLEMOISSON-SUR-ORGE", "postcode": "91360", "id": 857}, {"municipality": "BLARU", "postcode": "78270", "id": 858}, {"municipality": "NANTEUIL-LES-MEAUX", "postcode": "77100", "id": 859}, {"municipality": "MONTSOULT", "postcode": "95560", "id": 860}, {"municipality": "OINVILLE-SUR-MONTCIENT", "postcode": "78250", "id": 861}, {"municipality": "PARIS-7E-ARRONDISSEMENT", "postcode": "75007", "id": 862}, {"municipality": "CONFLANS-SAINTE-HONORINE", "postcode": "78700", "id": 863}, {"municipality": "LE VESINET", "postcode": "78110", "id": 864}, {"municipality": "THORIGNY-SUR-MARNE", "postcode": "77400", "id": 865}, {"municipality": "SAINT-AUBIN", "postcode": "91190", "id": 866}, {"municipality": "SAINT-MARTIN-DES-CHAMPS", "postcode": "77320", "id": 867}, {"municipality": "BRUYERES-SUR-OISE", "postcode": "95820", "id": 868}, {"municipality": "MONDEVILLE", "postcode": "91590", "id": 869}, {"municipality": "COURCOURONNES", "postcode": "91080", "id": 870}, {"municipality": "GENNEVILLIERS", "postcode": "92230", "id": 871}, {"municipality": "RIS-ORANGIS", "postcode": "91130", "id": 872}, {"municipality": "VILLEPARISIS", "postcode": "77270", "id": 873}, {"municipality": "EMANCE", "postcode": "78125", "id": 874}, {"municipality": "HERME", "postcode": "77114", "id": 875}, {"municipality": "ASNIERES-SUR-OISE", "postcode": "95270", "id": 876}, {"municipality": "DAGNY", "postcode": "77320", "id": 877}, {"municipality": "TORFOU", "postcode": "91730", "id": 878}, {"municipality": "VILLENEUVE-SOUS-DAMMARTIN", "postcode": "77230", "id": 879}, {"municipality": "MARGENCY", "postcode": "95580", "id": 880}, {"municipality": "VERNEUIL-L'ETANG", "postcode": "77390", "id": 881}, {"municipality": "LOMMOYE", "postcode": "78270", "id": 882}, {"municipality": "OSNY", "postcode": "95520", "id": 883}, {"municipality": "EGLIGNY", "postcode": "77126", "id": 884}, {"municipality": "NEUILLY-PLAISANCE", "postcode": "93360", "id": 885}, {"municipality": "BRIERES-LES-SCELLES", "postcode": "91150", "id": 886}, {"municipality": "FREPILLON", "postcode": "95740", "id": 887}, {"municipality": "MORMANT", "postcode": "77720", "id": 888}, {"municipality": "FREMAINVILLE", "postcode": "95450", "id": 889}, {"municipality": "GRISY-SUISNES", "postcode": "77166", "id": 890}, {"municipality": "LA FRETTE-SUR-SEINE", "postcode": "95530", "id": 891}, {"municipality": "BOUVILLE", "postcode": "91880", "id": 892}, {"municipality": "GROSROUVRE", "postcode": "78490", "id": 893}, {"municipality": "CHENNEVIERES-LES-LOUVRES", "postcode": "95380", "id": 894}, {"municipality": "LA HAUTEVILLE", "postcode": "78113", "id": 895}, {"municipality": "PONTAULT-COMBAULT", "postcode": "77340", "id": 896}, {"municipality": "VILLIERS-LE-BEL", "postcode": "95400", "id": 897}, {"municipality": "FEUCHEROLLES", "postcode": "78810", "id": 898}, {"municipality": "REBAIS", "postcode": "77510", "id": 899}, {"municipality": "MENUCOURT", "postcode": "95180", "id": 900}, {"municipality": "ARGENTIERES", "postcode": "77390", "id": 901}, {"municipality": "ICHY", "postcode": "77890", "id": 902}, {"municipality": "GENAINVILLE", "postcode": "95420", "id": 903}, {"municipality": "CHATENAY-EN-FRANCE", "postcode": "95190", "id": 904}, {"municipality": "D'HUISON-LONGUEVILLE", "postcode": "91590", "id": 905}, {"municipality": "BLENNES", "postcode": "77940", "id": 906}, {"municipality": "TAVERNY", "postcode": "95150", "id": 907}, {"municipality": "LARDY", "postcode": "91510", "id": 908}, {"municipality": "MONTMAGNY", "postcode": "95360", "id": 909}, {"municipality": "SAINT-MARTIN-LA-GARENNE", "postcode": "78520", "id": 910}, {"municipality": "GUIRY-EN-VEXIN", "postcode": "95450", "id": 911}, {"municipality": "BOURDONNE", "postcode": "78113", "id": 912}, {"municipality": "LONGPONT-SUR-ORGE", "postcode": "91310", "id": 913}, {"municipality": "BABY", "postcode": "77480", "id": 914}, {"municipality": "LA COURNEUVE", "postcode": "93120", "id": 915}, {"municipality": "VILLECONIN", "postcode": "91580", "id": 916}, {"municipality": "MANTES-LA-JOLIE", "postcode": "78200", "id": 917}, {"municipality": "SOISY-BOUY", "postcode": "77650", "id": 918}, {"municipality": "SAINT-MERY", "postcode": "77720", "id": 919}, {"municipality": "ALLAINVILLE", "postcode": "78660", "id": 920}, {"municipality": "VAUGRIGNEUSE", "postcode": "91640", "id": 921}, {"municipality": "LA ROCHETTE", "postcode": "77000", "id": 922}, {"municipality": "HERBLAY", "postcode": "95220", "id": 923}, {"municipality": "NAINVILLE-LES-ROCHES", "postcode": "91750", "id": 924}, {"municipality": "TIGERY", "postcode": "91250", "id": 925}, {"municipality": "MAROLLES-SUR-SEINE", "postcode": "77130", "id": 926}, {"municipality": "LA GENEVRAYE", "postcode": "77690", "id": 927}, {"municipality": "LA QUEUE-EN-BRIE", "postcode": "94510", "id": 928}, {"municipality": "AUTHON-LA-PLAINE", "postcode": "91410", "id": 929}, {"municipality": "CRAVENT", "postcode": "78270", "id": 930}, {"municipality": "MORTERY", "postcode": "77160", "id": 931}, {"municipality": "SANTEUIL", "postcode": "95640", "id": 932}, {"municipality": "SIGY", "postcode": "77520", "id": 933}, {"municipality": "GENTILLY", "postcode": "94250", "id": 934}, {"municipality": "VAUHALLAN", "postcode": "91430", "id": 935}, {"municipality": "BOULOGNE-BILLANCOURT", "postcode": "92100", "id": 936}, {"municipality": "SERMAISE", "postcode": "91530", "id": 937}, {"municipality": "ROUVRES", "postcode": "77230", "id": 938}, {"municipality": "SAINT-VRAIN", "postcode": "91770", "id": 939}, {"municipality": "ANDRESY", "postcode": "78570", "id": 940}, {"municipality": "GAZERAN", "postcode": "78125", "id": 941}, {"municipality": "MAISONS-LAFFITTE", "postcode": "78600", "id": 942}, {"municipality": "VILLIERS-SUR-MORIN", "postcode": "77580", "id": 943}, {"municipality": "LES MARETS", "postcode": "77560", "id": 944}, {"municipality": "GAGNY", "postcode": "93220", "id": 945}, {"municipality": "DOMONT", "postcode": "95330", "id": 946}, {"municipality": "ARTHIES", "postcode": "95420", "id": 947}, {"municipality": "BUNO-BONNEVAUX", "postcode": "91720", "id": 948}, {"municipality": "OMERVILLE", "postcode": "95420", "id": 949}, {"municipality": "CARNETIN", "postcode": "77400", "id": 950}, {"municipality": "CERNEUX", "postcode": "77320", "id": 951}, {"municipality": "ETAMPES", "postcode": "91150", "id": 952}, {"municipality": "PRESLES", "postcode": "95590", "id": 953}, {"municipality": "LA GRANDE-PAROISSE", "postcode": "77130", "id": 954}, {"municipality": "CROISSY-SUR-SEINE", "postcode": "78290", "id": 955}, {"municipality": "MARLES-EN-BRIE", "postcode": "77610", "id": 956}, {"municipality": "PARIS-16E-ARRONDISSEMENT", "postcode": "75016", "id": 957}, {"municipality": "OSMOY", "postcode": "78910", "id": 958}, {"municipality": "LONGUESSE", "postcode": "95450", "id": 959}, {"municipality": "VERT", "postcode": "78930", "id": 960}, {"municipality": "ONCY-SUR-ECOLE", "postcode": "91490", "id": 961}, {"municipality": "ANTONY", "postcode": "92160", "id": 962}, {"municipality": "PUSSAY", "postcode": "91740", "id": 963}, {"municipality": "CORBREUSE", "postcode": "91410", "id": 964}, {"municipality": "ROCHEFORT-EN-YVELINES", "postcode": "78730", "id": 965}, {"municipality": "MARCOUSSIS", "postcode": "91460", "id": 966}, {"municipality": "NANTERRE", "postcode": "92000", "id": 967}, {"municipality": "MAISON-ROUGE", "postcode": "77370", "id": 968}, {"municipality": "FOUJU", "postcode": "77390", "id": 969}, {"municipality": "LA CHAPELLE-RABLAIS", "postcode": "77370", "id": 970}, {"municipality": "LE PLESSIS-BOUCHARD", "postcode": "95130", "id": 971}, {"municipality": "VAUX-LE-PENIL", "postcode": "77000", "id": 972}, {"municipality": "ETRECHY", "postcode": "91580", "id": 973}, {"municipality": "BERNES-SUR-OISE", "postcode": "95340", "id": 974}, {"municipality": "PAROY", "postcode": "77520", "id": 975}, {"municipality": "NOGENT-SUR-MARNE", "postcode": "94130", "id": 976}, {"municipality": "AUVERS-SAINT-GEORGES", "postcode": "91580", "id": 977}, {"municipality": "SAMOREAU", "postcode": "77210", "id": 978}, {"municipality": "CORMEILLES-EN-VEXIN", "postcode": "95830", "id": 979}, {"municipality": "DAMMARTIN-SUR-TIGEAUX", "postcode": "77163", "id": 980}, {"municipality": "PARIS-15E-ARRONDISSEMENT", "postcode": "75015", "id": 981}, {"municipality": "NOINTEL", "postcode": "95590", "id": 982}, {"municipality": "SEPT-SORTS", "postcode": "77260", "id": 983}, {"municipality": "ROINVILLE", "postcode": "91410", "id": 984}, {"municipality": "FONTAINE-LA-RIVIERE", "postcode": "91690", "id": 985}, {"municipality": "ATTAINVILLE", "postcode": "95570", "id": 986}, {"municipality": "MARNES-LA-COQUETTE", "postcode": "92430", "id": 987}, {"municipality": "LE PLESSIS-PLACY", "postcode": "77440", "id": 988}, {"municipality": "EPINAY-CHAMPLATREUX", "postcode": "95270", "id": 989}, {"municipality": "VILLENEUVE-SUR-AUVERS", "postcode": "91580", "id": 990}, {"municipality": "LE CHATELET-EN-BRIE", "postcode": "77820", "id": 991}, {"municipality": "BARBEY", "postcode": "77130", "id": 992}, {"municipality": "ARNOUVILLE", "postcode": "95400", "id": 993}, {"municipality": "PUTEAUX", "postcode": "92800", "id": 994}, {"municipality": "FONTENAY-SOUS-BOIS", "postcode": "94120", "id": 995}, {"municipality": "VILLENEUVE-LES-BORDES", "postcode": "77154", "id": 996}, {"municipality": "CONGERVILLE-THIONVILLE", "postcode": "91740", "id": 997}, {"municipality": "MERIEL", "postcode": "95630", "id": 998}, {"municipality": "MONTFORT-L'AMAURY", "postcode": "78490", "id": 999}, {"municipality": "RECLOSES", "postcode": "77760", "id": 1000}, {"municipality": "L'HAY-LES-ROSES", "postcode": "94240", "id": 1001}, {"municipality": "VENEUX-LES-SABLONS", "postcode": "77250", "id": 1002}, {"municipality": "FONTENAY-LES-BRIIS", "postcode": "91640", "id": 1003}, {"municipality": "PORCHEVILLE", "postcode": "78440", "id": 1004}, {"municipality": "GENICOURT", "postcode": "95650", "id": 1005}, {"municipality": "BOIS-D'ARCY", "postcode": "78390", "id": 1006}, {"municipality": "BAGNEUX", "postcode": "92220", "id": 1007}, {"municipality": "NONVILLE", "postcode": "77140", "id": 1008}, {"municipality": "VILLIERS-SUR-ORGE", "postcode": "91700", "id": 1009}, {"municipality": "ROISSY-EN-FRANCE", "postcode": "95700", "id": 1010}, {"municipality": "ARPAJON", "postcode": "91290", "id": 1011}, {"municipality": "PRECY-SUR-MARNE", "postcode": "77410", "id": 1012}, {"municipality": "COLOMBES", "postcode": "92700", "id": 1013}, {"municipality": "SAINT-CYR-SOUS-DOURDAN", "postcode": "91410", "id": 1014}, {"municipality": "L'ETANG-LA-VILLE", "postcode": "78620", "id": 1015}, {"municipality": "RICHARVILLE", "postcode": "91410", "id": 1016}, {"municipality": "MONTIGNY-LE-BRETONNEUX", "postcode": "78180", "id": 1017}, {"municipality": "PARIS-19E-ARRONDISSEMENT", "postcode": "75019", "id": 1018}, {"municipality": "PARIS-14E-ARRONDISSEMENT", "postcode": "75014", "id": 1019}, {"municipality": "PARIS-4E-ARRONDISSEMENT", "postcode": "75004", "id": 1020}, {"municipality": "SEPTEUIL", "postcode": "78790", "id": 1021}, {"municipality": "MOISSON", "postcode": "78840", "id": 1022}, {"municipality": "CHAVENAY", "postcode": "78450", "id": 1023}, {"municipality": "VULAINES-SUR-SEINE", "postcode": "77870", "id": 1024}, {"municipality": "BUC", "postcode": "78530", "id": 1025}, {"municipality": "SABLONNIERES", "postcode": "77510", "id": 1026}, {"municipality": "VILLEMER", "postcode": "77250", "id": 1027}, {"municipality": "MILLY-LA-FORET", "postcode": "91490", "id": 1028}, {"municipality": "MAROLLES-EN-BRIE", "postcode": "94440", "id": 1029}, {"municipality": "CHEVRAINVILLIERS", "postcode": "77760", "id": 1030}, {"municipality": "LE BOURGET", "postcode": "93350", "id": 1031}, {"municipality": "SEVRES", "postcode": "92310", "id": 1032}, {"municipality": "POMMEUSE", "postcode": "77515", "id": 1033}, {"municipality": "LIVRY-SUR-SEINE", "postcode": "77000", "id": 1034}, {"municipality": "JOUY-SUR-MORIN", "postcode": "77320", "id": 1035}, {"municipality": "MONTDAUPHIN", "postcode": "77320", "id": 1036}, {"municipality": "SIGNY-SIGNETS", "postcode": "77640", "id": 1037}, {"municipality": "AMILLIS", "postcode": "77120", "id": 1038}, {"municipality": "VILLENOY", "postcode": "77124", "id": 1039}, {"municipality": "MAISONCELLES-EN-GATINAIS", "postcode": "77570", "id": 1040}, {"municipality": "MARLY-LE-ROI", "postcode": "78160", "id": 1041}, {"municipality": "VILLENEUVE-SUR-BELLOT", "postcode": "77510", "id": 1042}, {"municipality": "LIMOURS", "postcode": "91470", "id": 1043}, {"municipality": "HODENT", "postcode": "95420", "id": 1044}, {"municipality": "ITTEVILLE", "postcode": "91760", "id": 1045}, {"municipality": "SAINT-LOUP-DE-NAUD", "postcode": "77650", "id": 1046}, {"municipality": "SAINT-PIERRE-DU-PERRAY", "postcode": "91280", "id": 1047}, {"municipality": "BLANDY", "postcode": "77115", "id": 1048}, {"municipality": "VERSAILLES", "postcode": "78000", "id": 1049}, {"municipality": "FRESNES-SUR-MARNE", "postcode": "77410", "id": 1050}, {"municipality": "SAINT-GERMAIN-DE-LA-GRANGE", "postcode": "78640", "id": 1051}, {"municipality": "CERNAY-LA-VILLE", "postcode": "78720", "id": 1052}, {"municipality": "HAUTE-ISLE", "postcode": "95780", "id": 1053}, {"municipality": "VIEUX-CHAMPAGNE", "postcode": "77370", "id": 1054}, {"municipality": "AUFFARGIS", "postcode": "78610", "id": 1055}, {"municipality": "BOUSSY-SAINT-ANTOINE", "postcode": "91800", "id": 1056}, {"municipality": "BAZAINVILLE", "postcode": "78550", "id": 1057}, {"municipality": "BOIGNEVILLE", "postcode": "91720", "id": 1058}, {"municipality": "LE PLESSIS-GASSOT", "postcode": "95720", "id": 1059}, {"municipality": "SAINTS", "postcode": "77120", "id": 1060}, {"municipality": "LEVIS-SAINT-NOM", "postcode": "78320", "id": 1061}, {"municipality": "GOMETZ-LE-CHATEL", "postcode": "91940", "id": 1062}, {"municipality": "PASSY-SUR-SEINE", "postcode": "77480", "id": 1063}, {"municipality": "LES MUREAUX", "postcode": "78130", "id": 1064}, {"municipality": "CHAUCONIN-NEUFMONTIERS", "postcode": "77124", "id": 1065}, {"municipality": "VIARMES", "postcode": "95270", "id": 1066}, {"municipality": "PECY", "postcode": "77970", "id": 1067}, {"municipality": "SAINT-WITZ", "postcode": "95470", "id": 1068}, {"municipality": "AMENUCOURT", "postcode": "95510", "id": 1069}, {"municipality": "PARIS-3E-ARRONDISSEMENT", "postcode": "75003", "id": 1070}, {"municipality": "BEAUCHERY-SAINT-MARTIN", "postcode": "77560", "id": 1071}, {"municipality": "GUITRANCOURT", "postcode": "78440", "id": 1072}, {"municipality": "BAILLY-ROMAINVILLIERS", "postcode": "77700", "id": 1073}, {"municipality": "SAINTRY-SUR-SEINE", "postcode": "91250", "id": 1074}, {"municipality": "NEUFMOUTIERS-EN-BRIE", "postcode": "77610", "id": 1075}, {"municipality": "CHATOU", "postcode": "78400", "id": 1076}, {"municipality": "VILLECERF", "postcode": "77250", "id": 1077}, {"municipality": "OZOIR-LA-FERRIERE", "postcode": "77330", "id": 1078}, {"municipality": "MAUREGARD", "postcode": "77990", "id": 1079}, {"municipality": "VIDELLES", "postcode": "91890", "id": 1080}, {"municipality": "CHARNY", "postcode": "77410", "id": 1081}, {"municipality": "LEUDON-EN-BRIE", "postcode": "77320", "id": 1082}, {"municipality": "SAMMERON", "postcode": "77260", "id": 1083}, {"municipality": "VILLENAUXE-LA-PETITE", "postcode": "77480", "id": 1084}, {"municipality": "COURTACON", "postcode": "77560", "id": 1085}, {"municipality": "SOIGNOLLES-EN-BRIE", "postcode": "77111", "id": 1086}, {"municipality": "BOUQUEVAL", "postcode": "95720", "id": 1087}, {"municipality": "MONTIGNY-LENCOUP", "postcode": "77520", "id": 1088}, {"municipality": "VERT-LE-GRAND", "postcode": "91810", "id": 1089}, {"municipality": "ORSONVILLE", "postcode": "78660", "id": 1090}, {"municipality": "VALMONDOIS", "postcode": "95760", "id": 1091}, {"municipality": "VILLENEUVE-SAINT-DENIS", "postcode": "77174", "id": 1092}, {"municipality": "BOUFFEMONT", "postcode": "95570", "id": 1093}, {"municipality": "SAINT-CLOUD", "postcode": "92210", "id": 1094}, {"municipality": "JOINVILLE-LE-PONT", "postcode": "94340", "id": 1095}, {"municipality": "GOUSSAINVILLE", "postcode": "95190", "id": 1096}, {"municipality": "FONTENAY-AUX-ROSES", "postcode": "92260", "id": 1097}, {"municipality": "NOISEAU", "postcode": "94880", "id": 1098}, {"municipality": "MONTRY", "postcode": "77450", "id": 1099}, {"municipality": "JAGNY-SOUS-BOIS", "postcode": "95850", "id": 1100}, {"municipality": "JUTIGNY", "postcode": "77650", "id": 1101}, {"municipality": "LONGJUMEAU", "postcode": "91160", "id": 1102}, {"municipality": "JUMEAUVILLE", "postcode": "78580", "id": 1103}, {"municipality": "PARIS-20E-ARRONDISSEMENT", "postcode": "75020", "id": 1104}, {"municipality": "AULNOY", "postcode": "77120", "id": 1105}, {"municipality": "FERICY", "postcode": "77133", "id": 1106}, {"municipality": "BERVILLE", "postcode": "95810", "id": 1107}, {"municipality": "LA CHAPELLE-SAINT-SULPICE", "postcode": "77160", "id": 1108}, {"municipality": "ALFORTVILLE", "postcode": "94140", "id": 1109}, {"municipality": "EVRY", "postcode": "91000", "id": 1110}, {"municipality": "BROUY", "postcode": "91150", "id": 1111}, {"municipality": "VILLENNES-SUR-SEINE", "postcode": "78670", "id": 1112}, {"municipality": "BRIIS-SOUS-FORGES", "postcode": "91640", "id": 1113}, {"municipality": "NANDY", "postcode": "77176", "id": 1114}, {"municipality": "MONTEREAU-SUR-LE-JARD", "postcode": "77950", "id": 1115}, {"municipality": "NOISY-RUDIGNON", "postcode": "77940", "id": 1116}, {"municipality": "GUERARD", "postcode": "77580", "id": 1117}, {"municipality": "SAINT-OUEN-L'AUMONE", "postcode": "95310", "id": 1118}, {"municipality": "CLOS-FONTAINE", "postcode": "77370", "id": 1119}, {"municipality": "CHATEAUBLEAU", "postcode": "77370", "id": 1120}, {"municipality": "ORMESSON", "postcode": "77167", "id": 1121}, {"municipality": "LE PORT-MARLY", "postcode": "78560", "id": 1122}, {"municipality": "BAGNOLET", "postcode": "93170", "id": 1123}, {"municipality": "CHATENAY-SUR-SEINE", "postcode": "77126", "id": 1124}, {"municipality": "LE TREMBLAY-SUR-MAULDRE", "postcode": "78490", "id": 1125}, {"municipality": "CERGY", "postcode": "95000/95800", "id": 1126}, {"municipality": "CUISY", "postcode": "77165", "id": 1127}, {"municipality": "FOLLAINVILLE-DENNEMONT", "postcode": "78520", "id": 1128}, {"municipality": "GUIBEVILLE", "postcode": "91630", "id": 1129}, {"municipality": "VARENNES-SUR-SEINE", "postcode": "77130", "id": 1130}, {"municipality": "MORSANG-SUR-ORGE", "postcode": "91390", "id": 1131}, {"municipality": "CHAUVRY", "postcode": "95560", "id": 1132}, {"municipality": "FONTENAY-MAUVOISIN", "postcode": "78200", "id": 1133}, {"municipality": "MONTGEROULT", "postcode": "95650", "id": 1134}, {"municipality": "ABLON-SUR-SEINE", "postcode": "94480", "id": 1135}, {"municipality": "CRECY-LA-CHAPELLE", "postcode": "77580", "id": 1136}, {"municipality": "LEVALLOIS-PERRET", "postcode": "92300", "id": 1137}, {"municipality": "DOUY-LA-RAMEE", "postcode": "77139", "id": 1138}, {"municipality": "LA CHAPELLE-IGER", "postcode": "77540", "id": 1139}, {"municipality": "SARCELLES", "postcode": "95200", "id": 1140}, {"municipality": "MOUY-SUR-SEINE", "postcode": "77480", "id": 1141}, {"municipality": "NOISY-SUR-ECOLE", "postcode": "77123", "id": 1142}, {"municipality": "DROCOURT", "postcode": "78440", "id": 1143}, {"municipality": "ISLES-LES-VILLENOY", "postcode": "77450", "id": 1144}, {"municipality": "MAULETTE", "postcode": "78550", "id": 1145}, {"municipality": "BONNEUIL-SUR-MARNE", "postcode": "94380", "id": 1146}, {"municipality": "SURESNES", "postcode": "92150", "id": 1147}, {"municipality": "MAGNY-LE-HONGRE", "postcode": "77700", "id": 1148}, {"municipality": "BOURRON-MARLOTTE", "postcode": "77780", "id": 1149}, {"municipality": "CONDE-SUR-VESGRE", "postcode": "78113", "id": 1150}, {"municipality": "GESVRES-LE-CHAPITRE", "postcode": "77165", "id": 1151}, {"municipality": "CESSON", "postcode": "77240", "id": 1152}, {"municipality": "QUINCY-VOISINS", "postcode": "77860", "id": 1153}, {"municipality": "SAINT-MARTIN-DE-BRETHENCOURT", "postcode": "78660", "id": 1154}, {"municipality": "FRANCONVILLE", "postcode": "95130", "id": 1155}, {"municipality": "OISSERY", "postcode": "77178", "id": 1156}, {"municipality": "FONTENAY-LE-FLEURY", "postcode": "78330", "id": 1157}, {"municipality": "JOSSIGNY", "postcode": "77600", "id": 1158}, {"municipality": "LES CHAPELLES-BOURBON", "postcode": "77610", "id": 1159}, {"municipality": "SAINT-MARTIN-DES-CHAMPS", "postcode": "78790", "id": 1160}, {"municipality": "CHALIFERT", "postcode": "77144", "id": 1161}, {"municipality": "VERNOU-LA-CELLE-SUR-SEINE", "postcode": "77670", "id": 1162}, {"municipality": "VIENNE-EN-ARTHIES", "postcode": "95510", "id": 1163}, {"municipality": "CHENOISE", "postcode": "77160", "id": 1164}, {"municipality": "HEDOUVILLE", "postcode": "95690", "id": 1165}, {"municipality": "DRANCY", "postcode": "93700", "id": 1166}, {"municipality": "QUIERS", "postcode": "77720", "id": 1167}, {"municipality": "FERRIERES-EN-BRIE", "postcode": "77164", "id": 1168}, {"municipality": "HERBEVILLE", "postcode": "78580", "id": 1169}, {"municipality": "COIGNIERES", "postcode": "78310", "id": 1170}, {"municipality": "NOISY-LE-ROI", "postcode": "78590", "id": 1171}, {"municipality": "BENNECOURT", "postcode": "78270", "id": 1172}, {"municipality": "BUTRY-SUR-OISE", "postcode": "95430", "id": 1173}, {"municipality": "PLAISIR", "postcode": "78370", "id": 1174}, {"municipality": "PARIS-9E-ARRONDISSEMENT", "postcode": "75009", "id": 1175}, {"municipality": "LIZY-SUR-OURCQ", "postcode": "77440", "id": 1176}, {"municipality": "MORIGNY-CHAMPIGNY", "postcode": "91150", "id": 1177}, {"municipality": "CHARENTON-LE-PONT", "postcode": "94220", "id": 1178}, {"municipality": "COCHEREL", "postcode": "77440", "id": 1179}, {"municipality": "MAISONS-ALFORT", "postcode": "94700", "id": 1180}, {"municipality": "AUFFERVILLE", "postcode": "77570", "id": 1181}, {"municipality": "RUMONT", "postcode": "77760", "id": 1182}, {"municipality": "BARBIZON", "postcode": "77630", "id": 1183}, {"municipality": "CHARTRETTES", "postcode": "77590", "id": 1184}, {"municipality": "BOISSY-LE-SEC", "postcode": "91870", "id": 1185}, {"municipality": "FONTAINS", "postcode": "77370", "id": 1186}, {"municipality": "VAUCOURTOIS", "postcode": "77580", "id": 1187}, {"municipality": "ROZAY-EN-BRIE", "postcode": "77540", "id": 1188}, {"municipality": "VERDELOT", "postcode": "77510", "id": 1189}, {"municipality": "CHEVRU", "postcode": "77320", "id": 1190}, {"municipality": "LA TRETOIRE", "postcode": "77510", "id": 1191}, {"municipality": "BUTHIERS", "postcode": "77760", "id": 1192}, {"municipality": "SAINT-GERMAIN-EN-LAYE", "postcode": "78100", "id": 1193}, {"municipality": "LA FORET-LE-ROI", "postcode": "91410", "id": 1194}, {"municipality": "SAINT-DENIS", "postcode": "93200/93210", "id": 1195}, {"municipality": "DONNEMARIE-DONTILLY", "postcode": "77520", "id": 1196}, {"municipality": "SAINT-BRICE-SOUS-FORET", "postcode": "95350", "id": 1197}, {"municipality": "MARCQ", "postcode": "78770", "id": 1198}, {"municipality": "SAINT-GERMAIN-LAXIS", "postcode": "77950", "id": 1199}, {"municipality": "BANNOST-VILLEGAGNON", "postcode": "77970", "id": 1200}, {"municipality": "CREVECOEUR-EN-BRIE", "postcode": "77610", "id": 1201}, {"municipality": "MILLEMONT", "postcode": "78940", "id": 1202}, {"municipality": "COLLEGIEN", "postcode": "77090", "id": 1203}, {"municipality": "FONTENAY-TRESIGNY", "postcode": "77610", "id": 1204}, {"municipality": "MONTHYON", "postcode": "77122", "id": 1205}, {"municipality": "FLAGY", "postcode": "77940", "id": 1206}, {"municipality": "LESCHEROLLES", "postcode": "77320", "id": 1207}, {"municipality": "SAINT-HILAIRE", "postcode": "91780", "id": 1208}, {"municipality": "LIVILLIERS", "postcode": "95300", "id": 1209}, {"municipality": "CHANGIS-SUR-MARNE", "postcode": "77660", "id": 1210}, {"municipality": "FORGES", "postcode": "77130", "id": 1211}, {"municipality": "LE PLESSIS-L'EVEQUE", "postcode": "77165", "id": 1212}, {"municipality": "MAGNY-LES-HAMEAUX", "postcode": "78114", "id": 1213}, {"municipality": "US", "postcode": "95450", "id": 1214}, {"municipality": "MEZIERES-SUR-SEINE", "postcode": "78970", "id": 1215}, {"municipality": "LARCHANT", "postcode": "77760", "id": 1216}, {"municipality": "ROINVILLIERS", "postcode": "91150", "id": 1217}, {"municipality": "SAINT-MAURICE", "postcode": "94410", "id": 1218}, {"municipality": "PEZARCHES", "postcode": "77131", "id": 1219}, {"municipality": "JEUFOSSE", "postcode": "78270", "id": 1220}, {"municipality": "SAINT-REMY-LA-VANNE", "postcode": "77320", "id": 1221}, {"municipality": "LEUDEVILLE", "postcode": "91630", "id": 1222}, {"municipality": "RONQUEROLLES", "postcode": "95340", "id": 1223}, {"municipality": "BERNAY-VILBERT", "postcode": "77540", "id": 1224}, {"municipality": "VAIRES-SUR-MARNE", "postcode": "77360", "id": 1225}, {"municipality": "BRAY-ET-LU", "postcode": "95710", "id": 1226}, {"municipality": "MONS-EN-MONTOIS", "postcode": "77520", "id": 1227}, {"municipality": "CHOISEL", "postcode": "78460", "id": 1228}, {"municipality": "EVRY-GREGY-SUR-YERRE", "postcode": "77166", "id": 1229}, {"municipality": "BONNELLES", "postcode": "78830", "id": 1230}, {"municipality": "SAINT-PATHUS", "postcode": "77178", "id": 1231}, {"municipality": "SOGNOLLES-EN-MONTOIS", "postcode": "77520", "id": 1232}, {"municipality": "EGREVILLE", "postcode": "77620", "id": 1233}, {"municipality": "SAINT-LEGER", "postcode": "77510", "id": 1234}, {"municipality": "SAINT-JUST-EN-BRIE", "postcode": "77370", "id": 1235}, {"municipality": "CHALO-SAINT-MARS", "postcode": "91780", "id": 1236}, {"municipality": "SAINT-OUEN", "postcode": "93400", "id": 1237}, {"municipality": "GRIGNY", "postcode": "91350", "id": 1238}, {"municipality": "MERICOURT", "postcode": "78270", "id": 1239}, {"municipality": "COURCHAMP", "postcode": "77560", "id": 1240}, {"municipality": "GRISY-SUR-SEINE", "postcode": "77480", "id": 1241}, {"municipality": "PARIS-18E-ARRONDISSEMENT", "postcode": "75018", "id": 1242}, {"municipality": "VOULX", "postcode": "77940", "id": 1243}, {"municipality": "BOISSETS", "postcode": "78910", "id": 1244}, {"municipality": "DAMMARTIN-EN-GOELE", "postcode": "77230", "id": 1245}, {"municipality": "CHAUFFOUR-LES-ETRECHY", "postcode": "91580", "id": 1246}, {"municipality": "AULNAY-SUR-MAULDRE", "postcode": "78126", "id": 1247}, {"municipality": "VOINSLES", "postcode": "77540", "id": 1248}, {"municipality": "THOURY-FEROTTES", "postcode": "77940", "id": 1249}, {"municipality": "ESMANS", "postcode": "77940", "id": 1250}, {"municipality": "PRUNAY-EN-YVELINES", "postcode": "78660", "id": 1251}, {"municipality": "CHAMPMOTTEUX", "postcode": "91150", "id": 1252}, {"municipality": "POMPONNE", "postcode": "77400", "id": 1253}, {"municipality": "SAVIGNY-SUR-ORGE", "postcode": "91600", "id": 1254}, {"municipality": "BOUGLIGNY", "postcode": "77570", "id": 1255}, {"municipality": "VIGNEUX-SUR-SEINE", "postcode": "91270", "id": 1256}, {"municipality": "ABLEIGES", "postcode": "95450", "id": 1257}, {"municipality": "PAMFOU", "postcode": "77830", "id": 1258}, {"municipality": "VERT-SAINT-DENIS", "postcode": "77240", "id": 1259}, {"municipality": "MANTES-LA-VILLE", "postcode": "78711", "id": 1260}, {"municipality": "ESBLY", "postcode": "77450", "id": 1261}, {"municipality": "NEAUPHLETTE", "postcode": "78980", "id": 1262}, {"municipality": "SEVRAN", "postcode": "93270", "id": 1263}, {"municipality": "CHILLY-MAZARIN", "postcode": "91380", "id": 1264}, {"municipality": "MERY-SUR-OISE", "postcode": "95540", "id": 1265}, {"municipality": "GRANDCHAMP", "postcode": "78113", "id": 1266}, {"municipality": "GARCHES", "postcode": "92380", "id": 1267}, {"municipality": "BRANSLES", "postcode": "77620", "id": 1268}, {"municipality": "BAILLET-EN-FRANCE", "postcode": "95560", "id": 1269}, {"municipality": "CHENNEVIERES-SUR-MARNE", "postcode": "94430", "id": 1270}, {"municipality": "CHALAUTRE-LA-GRANDE", "postcode": "77171", "id": 1271}, {"municipality": "SAINT-MARTIN-DU-BOSCHET", "postcode": "77320", "id": 1272}, {"municipality": "FAVRIEUX", "postcode": "78200", "id": 1273}, {"municipality": "ROCQUENCOURT", "postcode": "78150", "id": 1274}, {"municipality": "ECHOUBOULAINS", "postcode": "77830", "id": 1275}, {"municipality": "BETON-BAZOCHES", "postcode": "77320", "id": 1276}, {"municipality": "MOUSSY", "postcode": "95640", "id": 1277}, {"municipality": "GOMMECOURT", "postcode": "78270", "id": 1278}, {"municipality": "LA QUEUE-LES-YVELINES", "postcode": "78940", "id": 1279}, {"municipality": "CHATEAUFORT", "postcode": "78117", "id": 1280}, {"municipality": "SAINT-GERMAIN-SUR-ECOLE", "postcode": "77930", "id": 1281}, {"municipality": "CHENOU", "postcode": "77570", "id": 1282}, {"municipality": "NEUILLY-EN-VEXIN", "postcode": "95640", "id": 1283}, {"municipality": "MEDAN", "postcode": "78670", "id": 1284}, {"municipality": "CESSOY-EN-MONTOIS", "postcode": "77520", "id": 1285}, {"municipality": "ANDILLY", "postcode": "95580", "id": 1286}, {"municipality": "DRAVEIL", "postcode": "91210", "id": 1287}, {"municipality": "LE PRE-SAINT-GERVAIS", "postcode": "93310", "id": 1288}, {"municipality": "LORREZ-LE-BOCAGE-PREAUX", "postcode": "77710", "id": 1289}, {"municipality": "VILLABE", "postcode": "91100", "id": 1290}, {"municipality": "BOULLAY-LES-TROUX", "postcode": "91470", "id": 1291}, {"municipality": "ECHARCON", "postcode": "91540", "id": 1292}, {"municipality": "PARIS-1ER-ARRONDISSEMENT", "postcode": "75001", "id": 1293}, {"municipality": "MONTCHAUVET", "postcode": "78790", "id": 1294}, {"municipality": "CHESSY", "postcode": "77700", "id": 1295}, {"municipality": "VALPUISEAUX", "postcode": "91720", "id": 1296}, {"municipality": "TOUQUIN", "postcode": "77131", "id": 1297}, {"municipality": "CHARS", "postcode": "95750", "id": 1298}, {"municipality": "HOUDAN", "postcode": "78550", "id": 1299}, {"municipality": "MORANGIS", "postcode": "91420", "id": 1300}, {"municipality": "CONGIS-SUR-THEROUANNE", "postcode": "77440", "id": 1301}, {"municipality": "SAULX-LES-CHARTREUX", "postcode": "91160", "id": 1302}, {"municipality": "SOISY-SOUS-MONTMORENCY", "postcode": "95230", "id": 1303}, {"municipality": "DUGNY", "postcode": "93440", "id": 1304}, {"municipality": "EPIAIS-RHUS", "postcode": "95810", "id": 1305}, {"municipality": "SAINT-YON", "postcode": "91650", "id": 1306}, {"municipality": "VILLETTE", "postcode": "78930", "id": 1307}, {"municipality": "MOUSSEAUX-SUR-SEINE", "postcode": "78270", "id": 1308}, {"municipality": "OZOUER-LE-VOULGIS", "postcode": "77390", "id": 1309}]