[{"id":"75", "municipality":"Paris", "postcode":"75"},{"id":"75001", "municipality":"Paris 1er", "postcode":"75001"},{"id":"75002", "municipality":"Paris 2e", "postcode":"75002"},{"id":"75003", "municipality":"Paris 3e", "postcode":"75003"},{"id":"75004", "municipality":"Paris 4e", "postcode":"75004"},{"id":"75005", "municipality":"Paris 5e", "postcode":"75005"},{"id":"75006", "municipality":"Paris 6e", "postcode":"75006"},{"id":"75007", "municipality":"Paris 7e", "postcode":"75007"},{"id":"75008", "municipality":"Paris 8e", "postcode":"75008"},{"id":"75009", "municipality":"Paris 9e", "postcode":"75009"},{"id":"75010", "municipality":"Paris 10e", "postcode":"75010"},{"id":"75011", "municipality":"Paris 11e", "postcode":"75011"},{"id":"75012", "municipality":"Paris 12e", "postcode":"75012"},{"id":"75013", "municipality":"Paris 13e", "postcode":"75013"},{"id":"75014", "municipality":"Paris 14e", "postcode":"75014"},{"id":"75015", "municipality":"Paris 15e", "postcode":"75015"},{"id":"75016", "municipality":"Paris 16e", "postcode":"75016"},{"id":"75017", "municipality":"Paris 17e", "postcode":"75017"},{"id":"75018", "municipality":"Paris 18e", "postcode":"75018"},{"id":"75019", "municipality":"Paris 19e", "postcode":"75019"},{"id":"75020", "municipality":"Paris 20e", "postcode":"75020"},{"id":"St-Germain-l'Auxerrois", "municipality":"St-Germain-l'Auxerrois", "postcode":"75001"},{"id":"Halles", "municipality":"Halles", "postcode":"75001"},{"id":"Palais-Royal", "municipality":"Palais-Royal", "postcode":"75001"},{"id":"Place-Vendôme", "municipality":"Place-Vendôme", "postcode":"75001"},{"id":"Gaillon", "municipality":"Gaillon", "postcode":"75002"},{"id":"Vivienne", "municipality":"Vivienne", "postcode":"75002"},{"id":"Mail", "municipality":"Mail", "postcode":"75002"},{"id":"Bonne-Nouvelle", "municipality":"Bonne-Nouvelle", "postcode":"75002"},{"id":"Arts-et-Metiers", "municipality":"Arts-et-Metiers", "postcode":"75003"},{"id":"Enfants-Rouges", "municipality":"Enfants-Rouges", "postcode":"75003"},{"id":"Archives", "municipality":"Archives", "postcode":"75003"},{"id":"Sainte-Avoie", "municipality":"Sainte-Avoie", "postcode":"75003"},{"id":"Saint-Merri", "municipality":"Saint-Merri", "postcode":"75004"},{"id":"Arsenal", "municipality":"Arsenal", "postcode":"75004"},{"id":"Notre-Dame", "municipality":"Notre-Dame", "postcode":"75004"},{"id":"Saint-Victor", "municipality":"Saint-Victor", "postcode":"75005"},{"id":"Jardin-des-Plantes", "municipality":"Jardin-des-Plantes", "postcode":"75005"},{"id":"Val-de-Grace", "municipality":"Val-de-Grace", "postcode":"75005"},{"id":"Sorbonne", "municipality":"Sorbonne", "postcode":"75005"},{"id":"Monnaie", "municipality":"Monnaie", "postcode":"75006"},{"id":"Odeon", "municipality":"Odeon", "postcode":"75006"},{"id":"Notre-Dame-des-Champs", "municipality":"Notre-Dame-des-Champs", "postcode":"75006"},{"id":"Saint-Germain-des-Prés", "municipality":"Saint-Germain-des-Prés", "postcode":"75006"},{"id":"Saint-Thomas-d'Aquin", "municipality":"Saint-Thomas-d'Aquin", "postcode":"75007"},{"id":"Invalides", "municipality":"Invalides", "postcode":"75007"},{"id":"Ecole-Militaire", "municipality":"Ecole-Militaire", "postcode":"75007"},{"id":"Gros-Caillou", "municipality":"Gros Caillou", "postcode":"75007"},{"id":"Champs-Elysées", "municipality":"Champs-Elysées", "postcode":"75008"},{"id":"Faubourg-du-Roule", "municipality":"Faubourg-du-Roule", "postcode":"75008"},{"id":"Madeleine", "municipality":"Madeleine", "postcode":"75008"},{"id":"Europe", "municipality":"Europe", "postcode":"75008"},{"id":"Saint-Georges", "municipality":"Saint-Georges", "postcode":"75009"},{"id":"Chaussée-d'Antin", "municipality":"Chaussée-d'Antin", "postcode":"75009"},{"id":"Faubourg-Montmartre", "municipality":"Faubourg-Montmartre", "postcode":"75009"},{"id":"Rochechouart", "municipality":"Rochechouart", "postcode":"75009"},{"id":"Saint-Vincent-de-Paul", "municipality":"Saint-Vincent-de-Paul", "postcode":"75010"},{"id":"Porte-Saint-Denis", "municipality":"Porte-Saint-Denis", "postcode":"75010"},{"id":"Porte-Saint-Martin", "municipality":"Porte-Saint-Martin", "postcode":"75010"},{"id":"Hôpital-Saint-Louis", "municipality":"Hôpital-Saint-Louis", "postcode":"75010"},{"id":"Folie-Méricourt", "municipality":"Folie-Méricourt", "postcode":"75011"},{"id":"Saint-Ambroise", "municipality":"Saint-Ambroise", "postcode":"75011"},{"id":"Roquette", "municipality":"Roquette", "postcode":"75011"},{"id":"Sainte-Marguerite", "municipality":"Sainte-Marguerite", "postcode":"75011"},{"id":"Bel-Air", "municipality":"Bel-Air", "postcode":"75012"},{"id":"Picpus", "municipality":"Picpus", "postcode":"75012"},{"id":"Bercy", "municipality":"Bercy", "postcode":"75012"},{"id":"Quinze-Vingts", "municipality":"Quinze-Vingts", "postcode":"75012"},{"id":"Salpétrière", "municipality":"Salpétrière", "postcode":"75013"},{"id":"Gare", "municipality":"Gare", "postcode":"75013"},{"id":"Maison-Blanche", "municipality":"Maison-Blanche", "postcode":"75013"},{"id":"Croulebarbe", "municipality":"Croulebarbe", "postcode":"75013"},{"id":"Montparnasse", "municipality":"Montparnasse", "postcode":"75014"},{"id":"Parc-de-Montsouris", "municipality":"Parc-de-Montsouris", "postcode":"75014"},{"id":"Petit-Montrouge", "municipality":"Petit-Montrouge", "postcode":"75014"},{"id":"Plaisance", "municipality":"Plaisance", "postcode":"75014"},{"id":"Saint-Lambert", "municipality":"Saint-Lambert", "postcode":"75015"},{"id":"Necker", "municipality":"Necker", "postcode":"75015"},{"id":"Grenelle", "municipality":"Grenelle", "postcode":"75015"},{"id":"Javel 15Art", "municipality":"Javel 15Art", "postcode":"75015"},{"id":"Auteuil", "municipality":"Auteuil", "postcode":"75016"},{"id":"Muette", "municipality":"Muette", "postcode":"75016"},{"id":"Porte-Dauphine", "municipality":"Porte-Dauphine", "postcode":"75016"},{"id":"Chaillot", "municipality":"Chaillot", "postcode":"75016"},{"id":"Ternes", "municipality":"Ternes", "postcode":"75017"},{"id":"Plaine-de-Monceaux", "municipality":"Plaine-de-Monceaux", "postcode":"75017"},{"id":"Batignolles", "municipality":"Batignolles", "postcode":"75017"},{"id":"Epinettes", "municipality":"Epinettes", "postcode":"75017"},{"id":"Grandes-Carrières", "municipality":"Grandes-Carrières", "postcode":"75018"},{"id":"Clignancourt", "municipality":"Clignancourt", "postcode":"75018"},{"id":"Goutte-d'Or", "municipality":"Goutte-d'Or", "postcode":"75018"},{"id":"La-Chapelle", "municipality":"La-Chapelle", "postcode":"75018"},{"id":"Villette", "municipality":"Villette", "postcode":"75019"},{"id":"Pont-de-Flandre", "municipality":"Pont-de-Flandre", "postcode":"75019"},{"id":"Amérique", "municipality":"Amérique", "postcode":"75019"},{"id":"Combat", "municipality":"Combat", "postcode":"75019"},{"id":"Belleville", "municipality":"Belleville", "postcode":"75020"},{"id":"Saint-Fargeau", "municipality":"Saint-Fargeau", "postcode":"75020"},{"id":"Père-Lachaise", "municipality":"Père-Lachaise", "postcode":"75020"},{"id":"Charonne", "municipality":"Charonne", "postcode":"75020"},{"id":"75", "municipality":"paris", "postcode":"75"},{"id":"75001", "municipality":"paris 1er", "postcode":"75001"},{"id":"75002", "municipality":"paris 2e", "postcode":"75002"},{"id":"75003", "municipality":"paris 3e", "postcode":"75003"},{"id":"75004", "municipality":"paris 4e", "postcode":"75004"},{"id":"75005", "municipality":"paris 5e", "postcode":"75005"},{"id":"75006", "municipality":"paris 6e", "postcode":"75006"},{"id":"75007", "municipality":"paris 7e", "postcode":"75007"},{"id":"75008", "municipality":"paris 8e", "postcode":"75008"},{"id":"75009", "municipality":"paris 9e", "postcode":"75009"},{"id":"75010", "municipality":"paris 10e", "postcode":"75010"},{"id":"75011", "municipality":"paris 11e", "postcode":"75011"},{"id":"75012", "municipality":"paris 12e", "postcode":"75012"},{"id":"75013", "municipality":"paris 13e", "postcode":"75013"},{"id":"75014", "municipality":"paris 14e", "postcode":"75014"},{"id":"75015", "municipality":"paris 15e", "postcode":"75015"},{"id":"75016", "municipality":"paris-16e", "postcode":"75016"},{"id":"75017", "municipality":"paris 17e", "postcode":"75017"},{"id":"75018", "municipality":"paris 18e", "postcode":"75018"},{"id":"75019", "municipality":"paris 19e", "postcode":"75019"},{"id":"75020", "municipality":"paris 20e", "postcode":"75020"},{"id":"St-Germain-l'Auxerrois", "municipality":"St-Germain-l'Auxerrois", "postcode":"75001"},{"id":"Halles", "municipality":"Halles", "postcode":"75001"},{"id":"Palais-Royal", "municipality":"Palais-Royal", "postcode":"75001"},{"id":"Place-Vendôme", "municipality":"Place-Vendôme", "postcode":"75001"},{"id":"Gaillon", "municipality":"Gaillon", "postcode":"75002"},{"id":"Vivienne", "municipality":"Vivienne", "postcode":"75002"},{"id":"Mail", "municipality":"Mail", "postcode":"75002"},{"id":"Bonne-Nouvelle", "municipality":"Bonne-Nouvelle", "postcode":"75002"},{"id":"Arts-et-Metiers", "municipality":"Arts-et-Metiers", "postcode":"75003"},{"id":"Enfants-Rouges", "municipality":"Enfants-Rouges", "postcode":"75003"},{"id":"Archives", "municipality":"Archives", "postcode":"75003"},{"id":"Sainte-Avoie", "municipality":"Sainte-Avoie", "postcode":"75003"},{"id":"Saint-Merri", "municipality":"Saint-Merri", "postcode":"75004"},{"id":"Arsenal", "municipality":"Arsenal", "postcode":"75004"},{"id":"Notre-Dame", "municipality":"Notre-Dame", "postcode":"75004"},{"id":"Saint-Victor", "municipality":"Saint-Victor", "postcode":"75005"},{"id":"Jardin-des-Plantes", "municipality":"Jardin-des-Plantes", "postcode":"75005"},{"id":"Val-de-Grace", "municipality":"Val-de-Grace", "postcode":"75005"},{"id":"Sorbonne", "municipality":"Sorbonne", "postcode":"75005"},{"id":"Monnaie", "municipality":"Monnaie", "postcode":"75006"},{"id":"Odeon", "municipality":"Odeon", "postcode":"75006"},{"id":"Notre-Dame-des-Champs", "municipality":"Notre-Dame-des-Champs", "postcode":"75006"},{"id":"Saint-Germain-des-Prés", "municipality":"Saint-Germain-des-Prés", "postcode":"75006"},{"id":"Saint-Thomas-d'Aquin", "municipality":"Saint-Thomas-d'Aquin", "postcode":"75007"},{"id":"Invalides", "municipality":"Invalides", "postcode":"75007"},{"id":"Ecole-Militaire", "municipality":"Ecole-Militaire", "postcode":"75007"},{"id":"Gros-Caillou", "municipality":"Gros Caillou", "postcode":"75007"},{"id":"Champs-Elysées", "municipality":"Champs-Elysées", "postcode":"75008"},{"id":"Faubourg-du-Roule", "municipality":"Faubourg-du-Roule", "postcode":"75008"},{"id":"Madeleine", "municipality":"Madeleine", "postcode":"75008"},{"id":"Europe", "municipality":"Europe", "postcode":"75008"},{"id":"Saint-Georges", "municipality":"Saint-Georges", "postcode":"75009"},{"id":"Chaussée-d'Antin", "municipality":"Chaussée-d'Antin", "postcode":"75009"},{"id":"Faubourg-Montmartre", "municipality":"Faubourg-Montmartre", "postcode":"75009"},{"id":"Rochechouart", "municipality":"Rochechouart", "postcode":"75009"},{"id":"Saint-Vincent-de-Paul", "municipality":"Saint-Vincent-de-Paul", "postcode":"75010"},{"id":"Porte-Saint-Denis", "municipality":"Porte-Saint-Denis", "postcode":"75010"},{"id":"Porte-Saint-Martin", "municipality":"Porte-Saint-Martin", "postcode":"75010"},{"id":"Hôpital-Saint-Louis", "municipality":"Hôpital-Saint-Louis", "postcode":"75010"},{"id":"Folie-Méricourt", "municipality":"Folie-Méricourt", "postcode":"75011"},{"id":"Saint-Ambroise", "municipality":"Saint-Ambroise", "postcode":"75011"},{"id":"Roquette", "municipality":"Roquette", "postcode":"75011"},{"id":"Sainte-Marguerite", "municipality":"Sainte-Marguerite", "postcode":"75011"},{"id":"Bel-Air", "municipality":"Bel-Air", "postcode":"75012"},{"id":"Picpus", "municipality":"Picpus", "postcode":"75012"},{"id":"Bercy", "municipality":"Bercy", "postcode":"75012"},{"id":"Quinze-Vingts", "municipality":"Quinze-Vingts", "postcode":"75012"},{"id":"Salpétrière", "municipality":"Salpétrière", "postcode":"75013"},{"id":"Gare", "municipality":"Gare", "postcode":"75013"},{"id":"Maison-Blanche", "municipality":"Maison-Blanche", "postcode":"75013"},{"id":"Croulebarbe", "municipality":"Croulebarbe", "postcode":"75013"},{"id":"Montparnasse", "municipality":"Montparnasse", "postcode":"75014"},{"id":"Parc-de-Montsouris", "municipality":"Parc-de-Montsouris", "postcode":"75014"},{"id":"Petit-Montrouge", "municipality":"Petit-Montrouge", "postcode":"75014"},{"id":"Plaisance", "municipality":"Plaisance", "postcode":"75014"},{"id":"Saint-Lambert", "municipality":"Saint-Lambert", "postcode":"75015"},{"id":"Necker", "municipality":"Necker", "postcode":"75015"},{"id":"Grenelle", "municipality":"Grenelle", "postcode":"75015"},{"id":"Javel 15Art", "municipality":"Javel 15Art", "postcode":"75015"},{"id":"Auteuil", "municipality":"Auteuil", "postcode":"75016"},{"id":"Muette", "municipality":"Muette", "postcode":"75016"},{"id":"Porte-Dauphine", "municipality":"Porte-Dauphine", "postcode":"75016"},{"id":"Chaillot", "municipality":"Chaillot", "postcode":"75016"},{"id":"Ternes", "municipality":"Ternes", "postcode":"75017"},{"id":"Plaine-de-Monceaux", "municipality":"Plaine-de-Monceaux", "postcode":"75017"},{"id":"Batignolles", "municipality":"Batignolles", "postcode":"75017"},{"id":"Epinettes", "municipality":"Epinettes", "postcode":"75017"},{"id":"Grandes-Carrières", "municipality":"Grandes-Carrières", "postcode":"75018"},{"id":"Clignancourt", "municipality":"Clignancourt", "postcode":"75018"},{"id":"Goutte-d'Or", "municipality":"Goutte-d'Or", "postcode":"75018"},{"id":"La-Chapelle", "municipality":"La-Chapelle", "postcode":"75018"},{"id":"Villette", "municipality":"Villette", "postcode":"75019"},{"id":"Pont-de-Flandre", "municipality":"Pont-de-Flandre", "postcode":"75019"},{"id":"Amérique", "municipality":"Amérique", "postcode":"75019"},{"id":"Combat", "municipality":"Combat", "postcode":"75019"},{"id":"Belleville", "municipality":"Belleville", "postcode":"75020"},{"id":"Saint-Fargeau", "municipality":"Saint-Fargeau", "postcode":"75020"},{"id":"Père-Lachaise", "municipality":"Père-Lachaise", "postcode":"75020"},{"id":"Charonne", "municipality":"Charonne", "postcode":"75020"},{"id":"69", "municipality":"Lyon", "postcode":"69"},{"id":"69001", "municipality":"Lyon 1er", "postcode":"69001"},{"id":"69002", "municipality":"Lyon 2ème", "postcode":"69002"},{"id":"69003", "municipality":"Lyon 3ème", "postcode":"69003"},{"id":"69004", "municipality":"Lyon 4ème", "postcode":"69004"},{"id":"69005", "municipality":"Lyon 5ème", "postcode":"69005"},{"id":"69006", "municipality":"Lyon 6ème", "postcode":"69006"},{"id":"69007", "municipality":"Lyon 7ème", "postcode":"69007"},{"id":"69008", "municipality":"Lyon 8ème", "postcode":"69008"},{"id":"69009", "municipality":"Lyon 9ème", "postcode":"69009"},{"id":"59", "municipality":"Lille", "postcode":"59"},,{"id":"59800", "municipality":"Lille", "postcode":"59800"},{"id":"33", "municipality":"Bordeaux", "postcode":"33"},{"id":"33100", "municipality":"Bordeaux", "postcode":"33100"},{"id":"33200", "municipality":"Bordeaux", "postcode":"33200"},{"id":"33300", "municipality":"Bordeaux", "postcode":"33300"},{"id":"33800", "municipality":"Bordeaux", "postcode":"33800"},{"id":"13", "municipality":"Marseille", "postcode":"13"},{"id":"13001", "municipality":"Marseille 1er", "postcode":"13001"},{"id":"13002", "municipality":"Marseille 2ème", "postcode":"13002"},{"id":"13003", "municipality":"Marseille 3ème", "postcode":"13003"},{"id":"13004", "municipality":"Marseille 4ème", "postcode":"13004"},{"id":"13005", "municipality":"Marseille 5ème", "postcode":"13005"},{"id":"13006", "municipality":"Marseille 6ème", "postcode":"13006"},{"id":"13007", "municipality":"Marseille 7ème", "postcode":"13007"},{"id":"13008", "municipality":"Marseille 8ème", "postcode":"13008"},{"id":"13009", "municipality":"Marseille 9ème", "postcode":"13009"},{"id":"13010", "municipality":"Marseille 10ème", "postcode":"13010"},{"id":"13011", "municipality":"Marseille 11ème", "postcode":"13011"},{"id":"13012", "municipality":"Marseille 12ème", "postcode":"13012"},{"id":"13013", "municipality":"Marseille 13ème", "postcode":"13013"},{"id":"13014", "municipality":"Marseille 14ème", "postcode":"13014"},{"id":"13015", "municipality":"Marseille 15ème", "postcode":"13015"},{"id":"13016", "municipality":"Marseille 16ème", "postcode":"13016"},{"id":"31", "municipality":"Toulouse", "postcode":"31"},{"id":"31100", "municipality":"Toulouse", "postcode":"31100"},{"id":"31200", "municipality":"Toulouse", "postcode":"31200"},{"id":"31300", "municipality":"Toulouse", "postcode":"31300"},{"id":"31400", "municipality":"Toulouse", "postcode":"31400"},{"id":"31500", "municipality":"Toulouse", "postcode":"31500"},{"id":"06", "municipality":"Nice", "postcode":"06"},{"id":"06100", "municipality":"Nice", "postcode":"06100"},{"id":"06200", "municipality":"Nice", "postcode":"06200"},{"id":"06300", "municipality":"Nice", "postcode":"06300"},{"id":"44", "municipality":"Nantes", "postcode":"44"},{"id":"44100", "municipality":"Nantes", "postcode":"44100"},{"id":"44200", "municipality":"Nantes", "postcode":"44200"},{"id":"44300", "municipality":"Nantes", "postcode":"44300"},{"id":"67", "municipality":"Strasbourg", "postcode":"67"},{"id":"67100", "municipality":"Strasbourg", "postcode":"67100"},{"id":"67200", "municipality":"Strasbourg", "postcode":"67200"},{"id":"34", "municipality":"Montpellier", "postcode":"34"},{"id":"34070", "municipality":"Montpellier", "postcode":"34070"},{"id":"34080", "municipality":"Montpellier", "postcode":"34080"},{"id":"34090", "municipality":"Montpellier", "postcode":"34090"},{"id":"51100", "municipality":"Reims", "postcode":"51100"},{"id":"92014", "municipality":"Nanterre", "postcode":"92014"},{"id":"92100", "municipality":"Boulogne-Billancourt", "postcode":"92100"},{"id":"93100", "municipality":"Montreuil", "postcode":"93100"},{"id":"95100", "municipality":"Argenteuil", "postcode":"95100"},{"id":"92600", "municipality":"Asnières-sur-Seine", "postcode":"92600"},{"id":"78000", "municipality":"Versailles", "postcode":"78000"},{"id":"92400", "municipality":"Courbevoie", "postcode":"92400"},{"id":"92700", "municipality":"Colombes", "postcode":"92700"},{"id":"94400", "municipality":"Vitry-sur-Seine", "postcode":"94400"},{"id":"94100", "municipality":"Saint-Maur-des-Fossés", "postcode":"94100"},{"id":"97132", "municipality":"Issy-les-Moulineaux", "postcode":"97132"},{"id":"92300", "municipality":"Levallois-Perret", "postcode":"92300"},{"id":"92200", "municipality":"Neuilly-sur-Seine", "postcode":"92200"},{"id":"94300", "municipality":"Vincennes", "postcode":"94300"},{"id":"92120", "municipality":"Montrouge", "postcode":"92120"},{"id":"92150", "municipality":"Suresnes", "postcode":"92150"},{"id":"92170", "municipality":"Vanves", "postcode":"92170"},{"id":"94230", "municipality":"Cachan", "postcode":"94230"}]